{"type":"FeatureCollection","features":[{"type":"Feature","properties":{"id":"11"},"geometry":{"type":"Polygon","coordinates":[[[2.59052,49.07965],[2.63655,49.10711],[2.69781,49.0644],[2.72049,49.07488],[2.75355,49.06074],[2.80925,49.09754],[2.86627,49.07069],[2.96531,49.09116],[2.98689,49.07107],[3.00088,49.08953],[3.06074,49.08683],[3.06994,49.1159],[3.13309,49.10716],[3.16098,49.09928],[3.18996,49.05257],[3.16829,49.01667],[3.24419,48.97683],[3.26889,48.93783],[3.29829,48.94561],[3.33648,48.90919],[3.36831,48.92766],[3.36897,48.89368],[3.39165,48.87086],[3.44474,48.86005],[3.45543,48.84191],[3.48519,48.85191],[3.4872,48.81519],[3.40417,48.80927],[3.43814,48.80435],[3.44186,48.78241],[3.41728,48.78414],[3.39846,48.76441],[3.46502,48.7379],[3.47696,48.69936],[3.44755,48.67725],[3.46043,48.65301],[3.45109,48.63465],[3.52893,48.64597],[3.52107,48.6378],[3.55125,48.62308],[3.46552,48.57049],[3.48589,48.54727],[3.45695,48.52963],[3.4054,48.52801],[3.42859,48.49069],[3.38336,48.47944],[3.40359,48.45449],[3.39207,48.4269],[3.41355,48.41416],[3.41555,48.39373],[3.37506,48.39674],[3.36516,48.37228],[3.28851,48.3807],[3.20445,48.3642],[3.17181,48.37768],[3.10733,48.35407],[3.04617,48.35797],[3.04358,48.33044],[3.0159,48.3079],[3.04624,48.25578],[2.99943,48.20648],[2.97305,48.20555],[2.92408,48.16202],[2.82088,48.12966],[2.79926,48.13798],[2.80008,48.16806],[2.73641,48.16631],[2.75358,48.15321],[2.7075,48.12594],[2.55827,48.14161],[2.44431,48.12423],[2.48121,48.16267],[2.51653,48.16624],[2.52294,48.20052],[2.50771,48.23282],[2.42352,48.26037],[2.42332,48.29476],[2.40569,48.31423],[2.35823,48.30849],[2.32755,48.33297],[2.24516,48.2984],[2.2443,48.3256],[2.20225,48.3446],[2.18242,48.31496],[2.1548,48.31493],[2.16375,48.29843],[2.1106,48.29695],[2.11372,48.30725],[2.03909,48.285],[1.97141,48.29353],[1.96114,48.30478],[1.97924,48.31855],[1.97447,48.34699],[1.98903,48.36358],[1.96561,48.40349],[1.92837,48.40605],[1.94289,48.44109],[1.92792,48.45461],[1.86905,48.44031],[1.84492,48.4461],[1.83659,48.46709],[1.80145,48.46604],[1.77617,48.51443],[1.78725,48.55374],[1.70199,48.585],[1.71877,48.60574],[1.65757,48.62129],[1.60234,48.66498],[1.61066,48.6854],[1.57685,48.70258],[1.62654,48.74805],[1.57783,48.78124],[1.5895,48.81953],[1.57898,48.82944],[1.59392,48.83372],[1.58346,48.85807],[1.54721,48.87114],[1.56196,48.88715],[1.54052,48.91848],[1.50734,48.9276],[1.511,48.95357],[1.49497,48.95679],[1.51145,48.97546],[1.46492,48.98498],[1.48048,49.00115],[1.44645,49.04635],[1.46437,49.06231],[1.4857,49.05137],[1.50687,49.06267],[1.50634,49.08472],[1.52041,49.06958],[1.62332,49.08608],[1.61858,49.09698],[1.65734,49.13585],[1.67223,49.2062],[1.70885,49.2355],[1.73546,49.21595],[1.71555,49.20266],[1.754,49.17508],[1.80258,49.18493],[1.83462,49.16504],[1.99259,49.17636],[2.08816,49.20898],[2.09587,49.19006],[2.14705,49.1881],[2.16204,49.16868],[2.21865,49.18068],[2.23541,49.16703],[2.21656,49.15469],[2.22958,49.15129],[2.32178,49.18443],[2.35383,49.15398],[2.45823,49.14114],[2.49923,49.12227],[2.49985,49.10446],[2.5247,49.10096],[2.55329,49.1246],[2.59052,49.07965]]]}},{"type":"Feature","properties":{"id":"24"},"geometry":{"type":"Polygon","coordinates":[[[2.87463,47.52042],[2.93118,47.44167],[2.86995,47.33825],[2.98309,47.26081],[2.98168,47.222],[3.0291,47.12011],[3.02322,47.06262],[3.07516,47.02932],[3.06294,46.98109],[3.07403,46.94724],[3.05029,46.91063],[3.06674,46.87931],[3.05901,46.83068],[3.02465,46.79401],[2.96772,46.80401],[2.91327,46.79103],[2.84615,46.73003],[2.79123,46.73345],[2.75852,46.71775],[2.73459,46.74519],[2.70884,46.74113],[2.70256,46.7215],[2.62337,46.68964],[2.62834,46.66359],[2.60543,46.67121],[2.56713,46.65374],[2.5964,46.63897],[2.5757,46.61126],[2.60011,46.59524],[2.60379,46.5493],[2.53725,46.52047],[2.49695,46.53367],[2.3683,46.51843],[2.33653,46.50094],[2.32299,46.46968],[2.29818,46.4685],[2.26946,46.42296],[2.14859,46.42413],[2.09395,46.40976],[1.9819,46.43997],[1.82139,46.43004],[1.78652,46.45525],[1.74888,46.45097],[1.76027,46.42714],[1.71957,46.39026],[1.6836,46.41818],[1.63403,46.38878],[1.60925,46.42312],[1.55379,46.39433],[1.52191,46.4264],[1.42063,46.35106],[1.35602,46.40012],[1.31276,46.39429],[1.32214,46.38979],[1.30894,46.37271],[1.21964,46.36598],[1.21466,46.38706],[1.18437,46.3775],[1.20685,46.42514],[1.15047,46.45093],[1.13639,46.46932],[1.15194,46.47011],[1.13652,46.49307],[1.14914,46.5022],[1.13546,46.51412],[1.09133,46.53767],[1.02454,46.53593],[1.01905,46.56048],[0.91363,46.60066],[0.89638,46.63345],[0.91255,46.64962],[0.90324,46.67808],[0.92377,46.69282],[0.90562,46.72877],[0.81325,46.7911],[0.79484,46.84602],[0.75211,46.86087],[0.70432,46.90329],[0.69372,46.9732],[0.59056,47.00672],[0.56735,47.00012],[0.59747,46.97587],[0.59389,46.95638],[0.49508,46.95614],[0.43291,46.93182],[0.3622,46.94705],[0.318,46.9344],[0.29806,46.98359],[0.30893,47.04602],[0.27185,47.04639],[0.26794,47.06612],[0.24554,47.07129],[0.17997,47.05919],[0.17363,47.06803],[0.20095,47.09139],[0.18486,47.10824],[0.13908,47.10602],[0.14039,47.12387],[0.11924,47.12846],[0.07637,47.12393],[0.07839,47.14633],[0.0656,47.14306],[0.05383,47.16373],[0.05871,47.20615],[0.07631,47.21617],[0.07951,47.28278],[0.1473,47.34538],[0.14041,47.3618],[0.18296,47.38033],[0.15776,47.39889],[0.18528,47.42473],[0.18178,47.44735],[0.21911,47.50945],[0.19421,47.53751],[0.23434,47.57793],[0.2321,47.61082],[0.38449,47.57078],[0.39703,47.59219],[0.36421,47.62529],[0.38108,47.63907],[0.44652,47.61986],[0.46401,47.64561],[0.59688,47.67285],[0.61885,47.69348],[0.59557,47.68832],[0.58535,47.71726],[0.62756,47.75194],[0.70254,47.76682],[0.69781,47.78817],[0.77295,47.83804],[0.76018,47.89886],[0.79156,47.9098],[0.81684,47.89183],[0.81344,47.92592],[0.84512,47.94126],[0.81866,47.98925],[0.84173,48.02585],[0.7948,48.04656],[0.79484,48.06819],[0.84302,48.07264],[0.84817,48.0946],[0.81767,48.09304],[0.85203,48.13157],[0.91367,48.13504],[0.91146,48.14697],[0.79562,48.18804],[0.8259,48.22072],[0.7911,48.26558],[0.80707,48.28973],[0.76117,48.2985],[0.76248,48.31038],[0.79353,48.34234],[0.90903,48.37026],[0.97649,48.44111],[0.93724,48.46721],[0.95371,48.48027],[0.94403,48.49625],[0.95706,48.52573],[0.92285,48.53844],[0.92814,48.5573],[0.85064,48.58263],[0.84668,48.60637],[0.81717,48.61546],[0.82518,48.64862],[0.80935,48.66482],[0.85879,48.68556],[0.87543,48.71503],[1.03403,48.72846],[1.06444,48.75939],[1.06968,48.74879],[1.11865,48.75459],[1.1214,48.78919],[1.21863,48.75997],[1.32753,48.7604],[1.37696,48.79177],[1.35924,48.81361],[1.36626,48.83503],[1.46062,48.8723],[1.47088,48.89446],[1.45263,48.91869],[1.47151,48.93965],[1.53302,48.92279],[1.55725,48.89158],[1.54623,48.87243],[1.59347,48.84101],[1.57529,48.79115],[1.58146,48.76552],[1.62305,48.74983],[1.58476,48.70501],[1.61177,48.68947],[1.6086,48.65899],[1.6432,48.65129],[1.65991,48.61893],[1.71466,48.61468],[1.70925,48.57802],[1.76533,48.56937],[1.78417,48.54482],[1.77684,48.50931],[1.81147,48.46627],[1.83659,48.46709],[1.86911,48.44134],[1.90426,48.43861],[1.92326,48.45338],[1.94033,48.44166],[1.92837,48.40605],[1.97824,48.402],[1.9676,48.38168],[1.98307,48.36874],[1.98234,48.32832],[1.96397,48.29719],[2.02003,48.28607],[2.11372,48.30725],[2.1106,48.29695],[2.15651,48.29908],[2.15183,48.31384],[2.18069,48.31168],[2.20709,48.34494],[2.23774,48.33207],[2.24494,48.30226],[2.30021,48.31123],[2.32755,48.33297],[2.34198,48.31683],[2.40569,48.31423],[2.42844,48.25659],[2.46909,48.25527],[2.51833,48.22759],[2.52313,48.19489],[2.50633,48.15644],[2.47838,48.15674],[2.44889,48.13227],[2.45438,48.12237],[2.57056,48.14082],[2.70351,48.12424],[2.75549,48.14938],[2.73641,48.16631],[2.80823,48.16624],[2.80091,48.13325],[2.81364,48.13144],[2.86682,48.15604],[2.95327,48.16501],[3.0219,48.135],[3.01588,48.11571],[3.05619,48.06812],[3.12239,48.03154],[3.09946,48.02075],[3.12421,48.0069],[3.12845,47.97097],[3.0378,47.90672],[3.01164,47.90619],[3.00202,47.86911],[3.03178,47.85036],[3.01254,47.83437],[3.02518,47.79018],[2.9497,47.76587],[2.85343,47.75918],[2.84897,47.71684],[2.88465,47.71389],[2.87915,47.7038],[2.92109,47.68305],[2.92662,47.659],[2.94956,47.64958],[2.93627,47.59932],[2.97654,47.56943],[2.86023,47.554],[2.8489,47.53754],[2.87463,47.52042]]]}},{"type":"Feature","properties":{"id":"27"},"geometry":{"type":"Polygon","coordinates":[[[3.62942,46.74946],[3.58716,46.75915],[3.598,46.72398],[3.54811,46.72232],[3.55354,46.68438],[3.5216,46.6858],[3.48619,46.65327],[3.45926,46.65233],[3.44696,46.66077],[3.45272,46.68658],[3.42182,46.71373],[3.38479,46.71345],[3.34344,46.68516],[3.31841,46.68844],[3.30092,46.7163],[3.27306,46.71649],[3.19882,46.67951],[3.03722,46.77342],[3.03207,46.79491],[3.06864,46.85464],[3.05141,46.90496],[3.07652,46.95145],[3.06281,46.98712],[3.07581,47.02342],[3.01934,47.06817],[3.02809,47.12907],[2.98168,47.222],[2.9834,47.25976],[2.87655,47.32193],[2.87039,47.34315],[2.93141,47.43262],[2.88845,47.50943],[2.8489,47.53754],[2.86023,47.554],[2.97154,47.56783],[2.93923,47.60259],[2.94774,47.64302],[2.92026,47.66789],[2.92675,47.68176],[2.84865,47.7258],[2.85199,47.75786],[3.02353,47.78633],[3.01331,47.82776],[3.03382,47.84387],[3.00536,47.86405],[3.00723,47.89529],[3.10636,47.94882],[3.12832,47.98015],[3.1031,48.02405],[3.12426,48.03113],[3.05047,48.07233],[3.01667,48.14029],[2.93631,48.16339],[2.94511,48.18632],[3.00462,48.20677],[3.04757,48.2497],[3.01548,48.30514],[3.04187,48.32916],[3.04617,48.35797],[3.10342,48.34951],[3.11955,48.36694],[3.17483,48.37719],[3.2058,48.36491],[3.36516,48.37228],[3.37791,48.39911],[3.40965,48.3904],[3.42739,48.35809],[3.45697,48.3743],[3.49763,48.36958],[3.54511,48.33454],[3.5439,48.31979],[3.58008,48.30601],[3.58718,48.28017],[3.62108,48.26477],[3.60008,48.23704],[3.61477,48.2318],[3.60844,48.20957],[3.57898,48.19005],[3.63189,48.18939],[3.66685,48.14169],[3.72234,48.15683],[3.71417,48.17061],[3.7519,48.16129],[3.73972,48.13275],[3.79169,48.11764],[3.82635,48.06361],[3.8243,48.0429],[3.87183,48.01022],[3.84672,47.99251],[3.86766,47.97731],[3.88166,48.00029],[3.90221,47.9952],[3.91469,47.97569],[3.89403,47.9293],[3.90535,47.92505],[3.99988,47.93931],[4.05594,47.93008],[4.0664,47.94477],[4.10706,47.92981],[4.16633,47.9598],[4.19801,47.94118],[4.21307,47.9619],[4.19281,47.9646],[4.20242,47.973],[4.22596,47.97194],[4.22296,47.95206],[4.24272,47.93196],[4.27811,47.92404],[4.31716,47.96086],[4.55813,47.97074],[4.5388,47.99728],[4.58507,48.0301],[4.79217,48.00502],[4.80784,47.99029],[4.78651,47.9642],[4.84518,47.96125],[4.8661,47.94051],[4.82947,47.91228],[4.85464,47.8968],[4.86934,47.91745],[4.90291,47.92104],[4.92715,47.87885],[4.99413,47.81975],[4.91796,47.77709],[4.95443,47.76273],[4.95871,47.7347],[4.97003,47.73553],[4.95984,47.69697],[4.99675,47.68997],[5.03365,47.70789],[5.02912,47.69746],[5.05355,47.6942],[5.05095,47.67202],[5.10888,47.64968],[5.17834,47.68095],[5.17456,47.6563],[5.25054,47.62215],[5.23802,47.59654],[5.25322,47.5787],[5.33045,47.61085],[5.35557,47.59147],[5.41389,47.67496],[5.48277,47.68463],[5.5271,47.67263],[5.5672,47.70523],[5.59668,47.67169],[5.68589,47.68293],[5.68946,47.73194],[5.70958,47.7453],[5.70753,47.76755],[5.67956,47.77822],[5.68989,47.8191],[5.73626,47.81771],[5.7442,47.84885],[5.76513,47.85805],[5.82798,47.85187],[5.8207,47.8691],[5.84839,47.90433],[5.88069,47.90178],[5.92912,47.97519],[5.95882,47.97049],[5.934,47.94551],[5.95371,47.93703],[5.97088,47.95567],[6.00226,47.95609],[6.04118,48.00442],[6.12882,48.02277],[6.15606,48.00694],[6.15094,47.97056],[6.16497,47.95425],[6.20806,47.94676],[6.21442,47.93038],[6.28908,47.95584],[6.38893,47.96079],[6.42973,47.94331],[6.48124,47.88669],[6.54452,47.90537],[6.56828,47.93449],[6.60289,47.94472],[6.64374,47.90503],[6.77976,47.85076],[6.81857,47.81766],[6.83932,47.82478],[6.87139,47.7817],[7.01946,47.73602],[7.03742,47.72164],[7.02726,47.70183],[7.04232,47.68581],[7.03919,47.65057],[7.01348,47.64021],[7.00782,47.60021],[7.07724,47.59807],[7.14346,47.52461],[7.13035,47.50303],[7.07928,47.48886],[7.02102,47.50439],[6.98794,47.49478],[6.99752,47.45628],[6.94191,47.43377],[6.93838,47.40602],[6.8854,47.3746],[6.87896,47.35345],[7.01556,47.37279],[7.06221,47.34416],[7.01611,47.32545],[6.99914,47.2971],[6.94087,47.28509],[6.95541,47.24329],[6.84117,47.17126],[6.85017,47.15662],[6.70384,47.08226],[6.69167,47.06651],[6.71106,47.05433],[6.69663,47.0374],[6.61733,46.99164],[6.49669,46.97418],[6.43928,46.93085],[6.46458,46.89021],[6.46006,46.85168],[6.431,46.81241],[6.45857,46.7885],[6.45162,46.77834],[6.11162,46.5776],[6.14857,46.53934],[6.07655,46.46707],[6.08439,46.44743],[6.06733,46.42111],[5.86919,46.26497],[5.7197,46.26428],[5.71472,46.30877],[5.65291,46.32322],[5.64314,46.34478],[5.59913,46.29991],[5.5391,46.2688],[5.47385,46.26428],[5.45684,46.27448],[5.46815,46.31873],[5.4443,46.31871],[5.42366,46.34768],[5.40465,46.31034],[5.3671,46.38869],[5.2988,46.41268],[5.31578,46.42549],[5.31056,46.44677],[5.21962,46.46815],[5.19494,46.50812],[5.13507,46.50898],[5.06205,46.48556],[5.00137,46.51187],[4.94452,46.5144],[4.91418,46.4839],[4.88821,46.40298],[4.85146,46.35627],[4.85321,46.33169],[4.78021,46.17668],[4.72438,46.1843],[4.72776,46.23945],[4.68373,46.25343],[4.70834,46.27605],[4.6792,46.30626],[4.63526,46.29929],[4.61243,46.26721],[4.58651,46.26869],[4.56353,46.29433],[4.53726,46.26991],[4.50869,46.26758],[4.42856,46.30176],[4.3977,46.28045],[4.38971,46.21661],[4.36333,46.18203],[4.29529,46.17225],[4.28123,46.15594],[4.24869,46.16603],[4.25811,46.18365],[4.22703,46.17822],[4.20791,46.19484],[4.17614,46.17344],[4.10604,46.19669],[3.99012,46.16911],[3.95731,46.20454],[3.89013,46.21449],[3.90709,46.24075],[3.89927,46.28918],[3.99741,46.32329],[3.97791,46.40047],[4.00081,46.46245],[3.94687,46.49185],[3.87285,46.48707],[3.84459,46.52735],[3.80728,46.51934],[3.74185,46.53951],[3.73732,46.60157],[3.71286,46.61023],[3.69695,46.66058],[3.64244,46.70581],[3.62942,46.74946]]]}},{"type":"Feature","properties":{"id":"28"},"geometry":{"type":"MultiPolygon","coordinates":[[[[-1.11962,49.35557],[-1.07822,49.38849],[-0.94723,49.39581],[-0.75529,49.34891],[-0.4034,49.33405],[-0.22569,49.28182],[-0.08717,49.29791],[0.00346,49.32731],[0.12975,49.40299],[0.22999,49.42806],[0.33403,49.43342],[0.33932,49.44987],[0.27314,49.45341],[0.27298,49.44252],[0.12125,49.46319],[0.06655,49.51007],[0.15201,49.64324],[0.16423,49.68646],[0.18702,49.70245],[0.33666,49.74677],[0.58353,49.85262],[0.78003,49.87398],[0.9593,49.91951],[1.02005,49.91611],[1.10053,49.93574],[1.19452,49.96803],[1.38155,50.06577],[1.45333,50.06438],[1.45322,50.04227],[1.59478,49.94861],[1.6727,49.92085],[1.71022,49.88931],[1.73554,49.81167],[1.78476,49.75848],[1.74769,49.76096],[1.74439,49.7413],[1.71277,49.73389],[1.69987,49.68621],[1.74354,49.70213],[1.75238,49.68258],[1.69868,49.6439],[1.71938,49.62854],[1.6969,49.60126],[1.71733,49.58833],[1.69826,49.58134],[1.72278,49.56705],[1.72434,49.54642],[1.74461,49.53961],[1.74134,49.51899],[1.71747,49.50601],[1.7434,49.49189],[1.76694,49.50941],[1.78907,49.50543],[1.76935,49.46842],[1.72395,49.43986],[1.71394,49.40922],[1.73588,49.40647],[1.73449,49.38514],[1.76096,49.36621],[1.77577,49.29952],[1.79754,49.28845],[1.79055,49.24657],[1.76738,49.25177],[1.75869,49.27236],[1.70917,49.26446],[1.65278,49.12952],[1.61328,49.08008],[1.52707,49.06984],[1.51239,49.08384],[1.5033,49.0591],[1.45529,49.0573],[1.45776,49.02629],[1.48048,49.00115],[1.4617,48.98887],[1.51839,48.97835],[1.4919,48.96441],[1.511,48.95357],[1.49013,48.93615],[1.46131,48.93756],[1.46536,48.8776],[1.35876,48.82827],[1.36878,48.78226],[1.32118,48.76066],[1.24215,48.76946],[1.22305,48.75798],[1.12897,48.78842],[1.11184,48.74619],[1.05907,48.75676],[1.01407,48.7281],[0.9212,48.70918],[0.89057,48.7204],[0.85879,48.68556],[0.80935,48.66482],[0.82518,48.64862],[0.81717,48.61546],[0.84705,48.60952],[0.86694,48.57438],[0.93412,48.55428],[0.93304,48.53236],[0.96774,48.52388],[0.94155,48.49869],[0.95629,48.48228],[0.93753,48.46949],[0.96932,48.44134],[0.90903,48.37026],[0.7879,48.34109],[0.77314,48.32551],[0.75567,48.29982],[0.80543,48.29088],[0.78907,48.26156],[0.82729,48.21885],[0.7662,48.18271],[0.74536,48.1849],[0.65234,48.26396],[0.63234,48.25377],[0.63702,48.23986],[0.54078,48.24902],[0.4966,48.28222],[0.48757,48.3078],[0.4805,48.29859],[0.39554,48.32047],[0.38048,48.3418],[0.38244,48.4249],[0.32147,48.47289],[0.26475,48.4847],[0.17316,48.46522],[0.14921,48.45751],[0.15131,48.43723],[0.11718,48.43603],[0.10507,48.41477],[0.06357,48.40163],[0.06252,48.38303],[0.01911,48.38147],[-0.00135,48.39738],[-0.05466,48.378],[-0.05143,48.45031],[-0.14688,48.45644],[-0.1725,48.51054],[-0.1446,48.52775],[-0.23926,48.56533],[-0.26265,48.54864],[-0.24642,48.53205],[-0.27155,48.50745],[-0.32024,48.52292],[-0.35179,48.48623],[-0.39907,48.51039],[-0.46708,48.51309],[-0.65399,48.44428],[-0.66884,48.48646],[-0.68514,48.47054],[-0.72462,48.47321],[-0.73367,48.4673],[-0.71489,48.45435],[-0.76492,48.43666],[-0.7817,48.46608],[-0.81515,48.45768],[-0.85909,48.50051],[-0.9047,48.49601],[-0.9554,48.51729],[-0.99929,48.48958],[-1.06044,48.51494],[-1.15138,48.51908],[-1.21393,48.53932],[-1.25953,48.54077],[-1.27761,48.51539],[-1.37575,48.45919],[-1.42291,48.46073],[-1.44357,48.48425],[-1.48995,48.48937],[-1.53449,48.55031],[-1.51892,48.56659],[-1.54402,48.58739],[-1.53722,48.59875],[-1.56818,48.62411],[-1.47864,48.61824],[-1.39104,48.64465],[-1.35466,48.63201],[-1.3987,48.65417],[-1.37599,48.68507],[-1.44577,48.65477],[-1.57365,48.75098],[-1.57581,48.82343],[-1.61168,48.83287],[-1.58159,48.8544],[-1.55324,48.93421],[-1.55452,48.89391],[-1.55416,49.02439],[-1.53452,49.03406],[-1.5135,49.02344],[-1.54256,49.04132],[-1.56433,49.03504],[-1.57521,49.00477],[-1.59888,49.03737],[-1.60996,49.09912],[-1.58436,49.1316],[-1.61363,49.21876],[-1.57493,49.2231],[-1.60892,49.23207],[-1.63612,49.21808],[-1.6769,49.27826],[-1.66577,49.28188],[-1.70808,49.31991],[-1.67617,49.32933],[-1.72479,49.32745],[-1.7805,49.3724],[-1.75587,49.36896],[-1.81312,49.3805],[-1.85089,49.50883],[-1.88548,49.52999],[-1.839,49.5764],[-1.85004,49.63264],[-1.87594,49.65872],[-1.9382,49.67257],[-1.9419,49.72512],[-1.88865,49.7063],[-1.85533,49.71607],[-1.82089,49.69083],[-1.71781,49.67985],[-1.66687,49.65785],[-1.61545,49.65818],[-1.62937,49.65968],[-1.61516,49.64346],[-1.60576,49.65852],[-1.48693,49.66852],[-1.47326,49.69701],[-1.2662,49.69542],[-1.22901,49.61267],[-1.2528,49.6123],[-1.27322,49.5735],[-1.26814,49.58261],[-1.29623,49.58317],[-1.30636,49.53893],[-1.16759,49.40719],[-1.17666,49.36884],[-1.11962,49.35557]]],[[[-1.24053,49.58545],[-1.24801,49.5876],[-1.24274,49.59128],[-1.24053,49.58545]]],[[[-1.84184,48.87556],[-1.84264,48.8785],[-1.841,48.87789],[-1.84184,48.87556]]],[[[-1.5109,48.63502],[-1.5132,48.63585],[-1.5111,48.63695],[-1.5109,48.63502]]],[[[-1.82137,48.86824],[-1.83084,48.86822],[-1.83719,48.8763],[-1.82137,48.86824]]],[[[-1.76603,48.87183],[-1.76782,48.8745],[-1.76609,48.87506],[-1.76603,48.87183]]]]}},{"type":"Feature","properties":{"id":"32"},"geometry":{"type":"Polygon","coordinates":[[[4.1409,49.97876],[4.23316,49.95775],[4.2176,49.91268],[4.25354,49.90396],[4.2527,49.87678],[4.21427,49.80611],[4.22236,49.78722],[4.20756,49.78109],[4.24488,49.75908],[4.18519,49.69888],[4.12618,49.67318],[4.11495,49.6348],[4.04447,49.63839],[4.02529,49.62253],[4.07657,49.57113],[4.05037,49.5515],[4.07675,49.53132],[4.04316,49.50833],[4.04135,49.47306],[4.06748,49.44677],[4.03962,49.43315],[4.0355,49.3599],[3.96131,49.37734],[3.92523,49.40758],[3.90088,49.39374],[3.82238,49.40238],[3.85985,49.38615],[3.85284,49.34497],[3.77753,49.35582],[3.64394,49.31272],[3.65541,49.26123],[3.67815,49.23533],[3.65148,49.22156],[3.656,49.21152],[3.70465,49.20066],[3.69663,49.19334],[3.72544,49.17352],[3.75115,49.1777],[3.74894,49.16078],[3.71116,49.14598],[3.62766,49.15132],[3.60964,49.13501],[3.60309,49.11467],[3.63905,49.08131],[3.60461,49.07023],[3.58761,49.03381],[3.65008,49.04282],[3.67897,49.0183],[3.63989,49.00409],[3.61708,48.96486],[3.59156,48.96037],[3.60163,48.95348],[3.57075,48.91492],[3.52189,48.9054],[3.46266,48.8398],[3.43966,48.86053],[3.40421,48.86398],[3.40586,48.87588],[3.38143,48.87157],[3.37139,48.91861],[3.3303,48.90871],[3.30475,48.94876],[3.26396,48.94181],[3.25184,48.97237],[3.17594,49.01247],[3.1659,49.02069],[3.18924,49.04596],[3.18012,49.06541],[3.13014,49.107],[3.06766,49.11439],[3.051,49.08509],[3.01555,49.09123],[2.97746,49.07266],[2.96531,49.09116],[2.85465,49.07018],[2.80925,49.09754],[2.74048,49.06102],[2.72466,49.07537],[2.68991,49.06757],[2.65021,49.10055],[2.59052,49.07965],[2.55817,49.09839],[2.55714,49.12171],[2.53862,49.12166],[2.53106,49.0996],[2.48993,49.10636],[2.50326,49.11758],[2.45823,49.14114],[2.4354,49.13394],[2.4409,49.1458],[2.38045,49.15804],[2.36079,49.14873],[2.31876,49.18524],[2.28641,49.15992],[2.22958,49.15129],[2.21752,49.15366],[2.23436,49.166],[2.21865,49.18068],[2.17059,49.16606],[2.14705,49.1881],[2.10362,49.18892],[2.08117,49.20681],[2.00184,49.17594],[1.97522,49.18366],[1.88257,49.16249],[1.79368,49.18364],[1.74269,49.17979],[1.72208,49.2025],[1.73411,49.22128],[1.69904,49.23487],[1.70917,49.26446],[1.75869,49.27236],[1.7669,49.25204],[1.78908,49.24904],[1.79754,49.28845],[1.77448,49.29146],[1.76096,49.36621],[1.72193,49.39295],[1.74038,49.40568],[1.71497,49.41476],[1.79033,49.49703],[1.77186,49.51285],[1.74687,49.48989],[1.71785,49.50296],[1.7483,49.53845],[1.72718,49.54163],[1.71541,49.57542],[1.69406,49.57903],[1.71588,49.58217],[1.70276,49.59774],[1.72136,49.62468],[1.70191,49.64145],[1.749,49.69214],[1.74354,49.70213],[1.71771,49.68437],[1.69692,49.68911],[1.71277,49.72945],[1.74546,49.73856],[1.75509,49.76194],[1.78124,49.75864],[1.78049,49.77012],[1.73739,49.80821],[1.71222,49.88559],[1.67012,49.92182],[1.61176,49.9399],[1.45219,50.04023],[1.44906,50.06889],[1.38655,50.06138],[1.45252,50.10834],[1.48278,50.17237],[1.5254,50.20697],[1.56673,50.21493],[1.59126,50.18767],[1.68162,50.18078],[1.66267,50.2136],[1.62574,50.2136],[1.53843,50.27858],[1.56112,50.36379],[1.62426,50.36629],[1.64077,50.3517],[1.55739,50.40403],[1.58073,50.52954],[1.58855,50.53935],[1.65438,50.50838],[1.57661,50.57223],[1.5625,50.7244],[1.59686,50.7275],[1.6056,50.7676],[1.58355,50.87182],[1.64577,50.88056],[1.77249,50.95254],[2.07774,51.00792],[2.11669,50.99524],[2.1081,51.00416],[2.14851,51.03403],[2.19025,51.01804],[2.17984,51.01983],[2.19317,51.03858],[2.17056,51.04403],[2.21401,51.03168],[2.34954,51.06059],[2.38683,51.04962],[2.53803,51.08612],[2.5629,51.06461],[2.57141,51.01021],[2.6069,50.99091],[2.62852,50.95033],[2.59471,50.9207],[2.60935,50.8942],[2.59959,50.85333],[2.64151,50.8131],[2.71748,50.81361],[2.79375,50.72624],[2.90984,50.69343],[2.95825,50.75345],[3.14732,50.79024],[3.20926,50.71115],[3.25554,50.70312],[3.26003,50.68232],[3.24011,50.65856],[3.27947,50.59564],[3.28709,50.53117],[3.38012,50.49259],[3.45008,50.50723],[3.47081,50.53093],[3.51832,50.52463],[3.49905,50.48877],[3.60709,50.49728],[3.66145,50.45748],[3.67302,50.4048],[3.65802,50.37345],[3.70572,50.30821],[3.728,50.30943],[3.74243,50.34887],[3.84741,50.3531],[3.90005,50.32728],[4.02196,50.35689],[4.12272,50.29785],[4.1247,50.27331],[4.15046,50.257],[4.16847,50.26612],[4.1553,50.28489],[4.20796,50.273],[4.2207,50.2522],[4.16027,50.21404],[4.15514,50.16524],[4.12693,50.13501],[4.19704,50.13531],[4.19763,50.10702],[4.23078,50.07334],[4.14429,50.03073],[4.1385,50.0118],[4.15842,49.99035],[4.1409,49.97876]]]}},{"type":"Feature","properties":{"id":"44"},"geometry":{"type":"Polygon","coordinates":[[[4.23316,49.95775],[4.30874,49.9697],[4.44694,49.9375],[4.51552,49.95029],[4.58208,49.98357],[4.68834,49.99546],[4.69302,50.08482],[4.82258,50.16832],[4.89497,50.14036],[4.87064,50.12465],[4.87596,50.09417],[4.83908,50.09466],[4.84033,50.07295],[4.81931,50.06588],[4.84042,50.04632],[4.79064,49.96385],[4.84711,49.94902],[4.88998,49.90927],[4.85159,49.85373],[4.87518,49.82052],[4.85148,49.79355],[4.90958,49.7858],[4.99536,49.80061],[5.01125,49.7813],[5.09537,49.76112],[5.12307,49.71731],[5.16158,49.71481],[5.16437,49.69368],[5.27319,49.69349],[5.32853,49.65825],[5.31026,49.6189],[5.33334,49.61569],[5.34725,49.63135],[5.42361,49.59879],[5.46507,49.53887],[5.45538,49.52144],[5.47472,49.49756],[5.56077,49.52736],[5.61098,49.50593],[5.64298,49.54997],[5.74738,49.53943],[5.77581,49.56218],[5.8172,49.537],[5.83696,49.54247],[5.86206,49.50197],[5.94311,49.50023],[5.96464,49.49285],[5.98765,49.46241],[5.97896,49.45499],[6.04215,49.4478],[6.05264,49.46412],[6.10081,49.45289],[6.12786,49.49374],[6.15285,49.49152],[6.15525,49.50381],[6.25641,49.51002],[6.36155,49.46093],[6.42625,49.47546],[6.54387,49.42967],[6.53896,49.40385],[6.59508,49.37144],[6.58967,49.35102],[6.56716,49.35703],[6.56845,49.34492],[6.6637,49.28228],[6.66033,49.26097],[6.69055,49.24764],[6.69593,49.21501],[6.72683,49.21299],[6.71136,49.18854],[6.73851,49.16366],[6.84765,49.1573],[6.85856,49.18638],[6.83538,49.21132],[6.92907,49.22191],[7.03331,49.19126],[7.04976,49.11453],[7.08888,49.13022],[7.08224,49.15203],[7.10558,49.15538],[7.10278,49.14415],[7.15468,49.12297],[7.23572,49.12873],[7.29093,49.11577],[7.32371,49.14269],[7.35523,49.14388],[7.36508,49.17184],[7.43815,49.18334],[7.43264,49.16588],[7.494,49.16964],[7.5064,49.15492],[7.48958,49.13653],[7.54539,49.08808],[7.63084,49.07281],[7.65046,49.05112],[7.7565,49.0456],[7.80044,49.06412],[7.8663,49.0334],[7.9456,49.05547],[7.97525,49.02971],[8.09138,48.98926],[8.23334,48.96668],[8.19242,48.9526],[8.15267,48.90903],[8.09155,48.8057],[8.02913,48.78648],[8.01471,48.76118],[7.97176,48.75763],[7.96314,48.72135],[7.83982,48.64137],[7.80417,48.59233],[7.8052,48.51357],[7.7682,48.48966],[7.73185,48.3929],[7.7422,48.32381],[7.69128,48.29833],[7.66602,48.22088],[7.60115,48.15838],[7.56994,48.08511],[7.56912,48.039],[7.62196,47.9757],[7.55547,47.87351],[7.56357,47.84773],[7.52963,47.77891],[7.54601,47.72607],[7.51375,47.70282],[7.52114,47.66373],[7.56843,47.63042],[7.58902,47.5899],[7.5,47.53979],[7.52771,47.52155],[7.4978,47.52123],[7.51089,47.50257],[7.49394,47.48831],[7.43006,47.49407],[7.42196,47.48379],[7.45563,47.47298],[7.42103,47.44611],[7.25437,47.42406],[7.17436,47.44298],[7.1957,47.48918],[7.13791,47.50213],[7.13788,47.53065],[7.07724,47.59807],[7.01956,47.58854],[7.01294,47.59933],[7.01348,47.64021],[7.04803,47.6841],[7.01596,47.74323],[6.86699,47.78331],[6.84618,47.82295],[6.79268,47.82946],[6.78499,47.8493],[6.64964,47.90176],[6.6041,47.94481],[6.56342,47.93139],[6.53793,47.90254],[6.48536,47.88884],[6.43512,47.94023],[6.38516,47.95899],[6.28908,47.95584],[6.20522,47.93205],[6.2083,47.94198],[6.15064,47.96548],[6.15625,48.00586],[6.12882,48.02277],[6.04118,48.00442],[6.00226,47.95609],[5.97078,47.95721],[5.95371,47.93703],[5.92839,47.93781],[5.95422,47.96204],[5.92912,47.97519],[5.88473,47.92605],[5.8873,47.90364],[5.85338,47.90553],[5.82182,47.87087],[5.81785,47.85325],[5.82967,47.85623],[5.76358,47.85891],[5.74435,47.84592],[5.74076,47.8192],[5.69224,47.82133],[5.67956,47.77822],[5.70753,47.76755],[5.70958,47.7453],[5.69039,47.73515],[5.69106,47.68463],[5.59668,47.67169],[5.57241,47.70527],[5.51836,47.6735],[5.41055,47.67483],[5.40575,47.64687],[5.35557,47.59147],[5.31926,47.61073],[5.25663,47.57668],[5.24147,47.59479],[5.25604,47.61926],[5.17539,47.65135],[5.17775,47.67723],[5.16186,47.6805],[5.12259,47.64707],[5.05617,47.66857],[5.04359,47.67652],[5.06065,47.69479],[5.02877,47.69328],[5.02258,47.70778],[4.99675,47.68997],[4.96162,47.6963],[4.97003,47.73553],[4.9568,47.73245],[4.95854,47.7608],[4.92268,47.75895],[4.92076,47.77281],[4.98226,47.80009],[4.98469,47.82887],[4.96043,47.8394],[4.95565,47.86277],[4.93156,47.87082],[4.8965,47.92266],[4.86934,47.91745],[4.86039,47.89803],[4.83404,47.90679],[4.8604,47.94878],[4.78651,47.9642],[4.80515,47.98563],[4.7808,48.00719],[4.57863,48.02909],[4.53722,48.006],[4.55424,47.96748],[4.309,47.96117],[4.27811,47.92404],[4.24546,47.92975],[4.2158,47.97251],[4.19395,47.96675],[4.21271,47.96307],[4.19801,47.94118],[4.16633,47.9598],[4.11179,47.927],[4.0664,47.94477],[4.04639,47.92685],[4.00903,47.93854],[3.89908,47.92787],[3.91092,47.98182],[3.89343,48.0017],[3.87997,47.97917],[3.84766,47.99012],[3.84133,47.99821],[3.87109,48.01496],[3.8243,48.0429],[3.82635,48.06361],[3.79808,48.0865],[3.80166,48.10673],[3.77145,48.1312],[3.74095,48.13139],[3.7519,48.16129],[3.71847,48.17537],[3.71822,48.15288],[3.66976,48.13951],[3.63189,48.18939],[3.57985,48.18434],[3.61544,48.21803],[3.60557,48.24251],[3.62463,48.25597],[3.61886,48.26754],[3.58412,48.28119],[3.58141,48.30299],[3.5439,48.31979],[3.50449,48.36578],[3.46528,48.37472],[3.43123,48.36048],[3.41328,48.3763],[3.42224,48.41286],[3.3946,48.43173],[3.40648,48.45245],[3.38336,48.47944],[3.43262,48.50001],[3.4054,48.52801],[3.48576,48.54521],[3.46552,48.57049],[3.5499,48.61597],[3.52821,48.64319],[3.45797,48.6348],[3.4427,48.67251],[3.47188,48.69568],[3.46675,48.72877],[3.43243,48.75581],[3.40062,48.75548],[3.40873,48.78212],[3.44291,48.78618],[3.40796,48.80664],[3.41661,48.81783],[3.47793,48.81411],[3.48642,48.85811],[3.52858,48.91214],[3.57075,48.91492],[3.60093,48.96634],[3.67497,49.01173],[3.65714,49.0382],[3.58761,49.03381],[3.58771,49.05939],[3.63449,49.07448],[3.60309,49.11467],[3.62225,49.1511],[3.74877,49.15708],[3.74212,49.17916],[3.70649,49.18031],[3.69532,49.20522],[3.65477,49.21366],[3.67815,49.23533],[3.64394,49.31272],[3.77753,49.35582],[3.85746,49.34886],[3.85635,49.38116],[3.82797,49.40034],[3.84832,49.40331],[3.93381,49.40187],[3.96131,49.37734],[4.02751,49.35985],[4.0495,49.41561],[4.03766,49.43826],[4.06217,49.44681],[4.04059,49.49991],[4.07745,49.52942],[4.04876,49.54527],[4.07521,49.56566],[4.02529,49.62253],[4.11906,49.63853],[4.12618,49.67318],[4.22424,49.72762],[4.24233,49.75292],[4.24304,49.76538],[4.20739,49.77626],[4.22668,49.79303],[4.2208,49.82539],[4.2527,49.87678],[4.2557,49.90321],[4.21839,49.92062],[4.23316,49.95775]]]}},{"type":"Feature","properties":{"id":"52"},"geometry":{"type":"MultiPolygon","coordinates":[[[[-2.62284,47.40975],[-2.62008,47.41356],[-2.61777,47.41153],[-2.62284,47.40975]]],[[[-2.45849,47.44812],[-2.42808,47.47586],[-2.40393,47.45677],[-2.32201,47.46045],[-2.28896,47.51517],[-2.25494,47.51151],[-2.26564,47.50178],[-2.24428,47.4936],[-2.19081,47.51206],[-2.18129,47.4908],[-2.16,47.49271],[-2.14534,47.52482],[-2.09683,47.54033],[-2.10372,47.58943],[-2.08369,47.61114],[-2.09704,47.63136],[-2.08369,47.64866],[-2.0515,47.64957],[-2.04067,47.66704],[-1.97993,47.68914],[-1.96124,47.67092],[-1.85831,47.70827],[-1.7716,47.69826],[-1.66411,47.71115],[-1.59007,47.77616],[-1.46838,47.80681],[-1.46887,47.83417],[-1.38907,47.82787],[-1.35368,47.79784],[-1.24355,47.78467],[-1.2218,47.84966],[-1.18899,47.86704],[-1.19663,47.88927],[-1.17623,47.8974],[-1.15646,47.96181],[-1.108,47.98935],[-1.05029,47.98447],[-1.02013,48.00033],[-1.03201,48.02991],[-1.02162,48.06801],[-1.04978,48.09038],[-1.09857,48.24929],[-1.09301,48.28249],[-1.04505,48.32818],[-1.08359,48.43373],[-1.06684,48.45933],[-1.07672,48.50231],[-1.06044,48.51494],[-0.99929,48.48958],[-0.9554,48.51729],[-0.84916,48.49778],[-0.81479,48.45936],[-0.77787,48.46541],[-0.76016,48.43616],[-0.71431,48.45288],[-0.73586,48.46112],[-0.7312,48.47123],[-0.69936,48.46715],[-0.66861,48.48349],[-0.64215,48.44833],[-0.59862,48.47102],[-0.55172,48.47312],[-0.5097,48.50901],[-0.39125,48.50869],[-0.3601,48.48482],[-0.32493,48.51926],[-0.27155,48.50745],[-0.2441,48.53467],[-0.24687,48.56443],[-0.20808,48.56414],[-0.15048,48.53042],[-0.17209,48.50214],[-0.14363,48.45473],[-0.05143,48.45031],[-0.05466,48.378],[0.00337,48.39599],[0.05777,48.37916],[0.07055,48.40909],[0.10507,48.41477],[0.11718,48.43603],[0.15131,48.43723],[0.14483,48.45271],[0.26475,48.4847],[0.30072,48.48049],[0.35426,48.459],[0.38244,48.4249],[0.38063,48.34306],[0.39884,48.3189],[0.48757,48.3078],[0.53605,48.24967],[0.6289,48.23619],[0.64553,48.26206],[0.68295,48.25488],[0.73783,48.18907],[0.7607,48.18021],[0.79766,48.19445],[0.91146,48.14697],[0.91367,48.13504],[0.85257,48.13361],[0.84122,48.10306],[0.81819,48.09831],[0.84817,48.0946],[0.84302,48.07264],[0.79891,48.07099],[0.79705,48.03837],[0.84188,48.03018],[0.82146,47.9893],[0.8487,47.94258],[0.81635,47.93428],[0.81385,47.89799],[0.79002,47.91221],[0.76398,47.89958],[0.77471,47.83937],[0.69369,47.78559],[0.69735,47.76419],[0.62756,47.75194],[0.58535,47.71726],[0.59557,47.68832],[0.61885,47.69348],[0.61481,47.68275],[0.46614,47.64426],[0.44993,47.61933],[0.38685,47.64132],[0.36612,47.62628],[0.40238,47.57842],[0.3813,47.57006],[0.23,47.6084],[0.22751,47.57551],[0.19994,47.54216],[0.22606,47.52659],[0.22011,47.50195],[0.18094,47.45341],[0.18528,47.42473],[0.15871,47.40318],[0.17948,47.38441],[0.0786,47.28394],[0.08976,47.2829],[0.06796,47.24503],[0.07932,47.21677],[0.05436,47.19964],[0.06348,47.17619],[-0.00787,47.15985],[-0.03573,47.1201],[-0.03562,47.08626],[-0.09035,47.09758],[-0.10212,47.0648],[-0.12522,47.0558],[-0.17902,47.07017],[-0.14126,47.10374],[-0.17593,47.10673],[-0.20627,47.09319],[-0.24074,47.1057],[-0.39592,47.09159],[-0.40078,47.07077],[-0.45799,47.06877],[-0.47634,47.05436],[-0.48472,47.06226],[-0.4682,47.08386],[-0.50027,47.08105],[-0.55075,47.06517],[-0.55203,47.02908],[-0.61147,46.99413],[-0.66994,47.0008],[-0.71588,46.98388],[-0.78972,47.0035],[-0.86076,46.96868],[-0.89594,46.9753],[-0.90196,46.96708],[-0.87712,46.96854],[-0.8833,46.95954],[-0.86058,46.9491],[-0.88223,46.95173],[-0.87373,46.94365],[-0.84948,46.94599],[-0.85569,46.93767],[-0.81235,46.92032],[-0.82608,46.89005],[-0.78165,46.84283],[-0.70531,46.81507],[-0.72717,46.76863],[-0.65772,46.70266],[-0.68073,46.68694],[-0.63699,46.66333],[-0.65653,46.64202],[-0.6151,46.62297],[-0.61999,46.56518],[-0.60659,46.56373],[-0.60422,46.53214],[-0.6404,46.51509],[-0.61029,46.45776],[-0.64064,46.39696],[-0.60187,46.41287],[-0.54118,46.3889],[-0.56133,46.36057],[-0.60325,46.36147],[-0.65687,46.31491],[-0.69674,46.32506],[-0.71968,46.30324],[-0.74121,46.30478],[-0.80075,46.32448],[-0.79672,46.33914],[-0.83988,46.34037],[-0.84948,46.31777],[-0.9631,46.32262],[-0.92739,46.37075],[-1.05253,46.34254],[-1.09781,46.31218],[-1.11776,46.32337],[-1.13499,46.31118],[-1.1627,46.32375],[-1.20306,46.31574],[-1.20341,46.26922],[-1.2959,46.32393],[-1.30598,46.31919],[-1.27908,46.28808],[-1.30032,46.29276],[-1.32159,46.32517],[-1.36388,46.34771],[-1.46216,46.34225],[-1.51507,46.4043],[-1.62352,46.41295],[-1.77501,46.49135],[-1.80962,46.49189],[-1.85702,46.60985],[-1.94703,46.6948],[-1.97305,46.69742],[-1.99786,46.73239],[-2.14474,46.82756],[-2.15576,46.88652],[-2.10984,46.89948],[-2.11286,46.91297],[-2.04608,46.96645],[-2.02933,47.00985],[-1.98042,47.02742],[-2.00243,47.05929],[-2.07443,47.10111],[-2.24721,47.13247],[-2.16803,47.16506],[-2.15929,47.20816],[-2.18121,47.27664],[-2.29755,47.23431],[-2.36975,47.27743],[-2.40805,47.28006],[-2.44061,47.25983],[-2.54334,47.29033],[-2.51381,47.29837],[-2.50291,47.32875],[-2.52116,47.35881],[-2.55811,47.37568],[-2.4682,47.42091],[-2.43962,47.41466],[-2.45849,47.44812]]],[[[-2.30479,46.70942],[-2.2821,46.69114],[-2.35182,46.69157],[-2.39868,46.7164],[-2.37211,46.73307],[-2.30479,46.70942]]],[[[-2.19807,46.95117],[-2.22316,46.96527],[-2.25876,46.95836],[-2.3011,46.98904],[-2.30326,47.02244],[-2.22562,47.01685],[-2.21959,46.99776],[-2.23861,46.9976],[-2.23648,46.97988],[-2.15718,46.95004],[-2.148,46.89462],[-2.19807,46.95117]]]]}},{"type":"Feature","properties":{"id":"53"},"geometry":{"type":"MultiPolygon","coordinates":[[[[-3.47716,48.88127],[-3.48448,48.88139],[-3.47834,48.88437],[-3.47716,48.88127]]],[[[-3.43867,48.89775],[-3.43924,48.89916],[-3.43564,48.90064],[-3.43867,48.89775]]],[[[-2.9821,48.79606],[-2.98283,48.79951],[-2.97941,48.79827],[-2.9821,48.79606]]],[[[-2.97847,48.84564],[-2.98093,48.84684],[-2.98025,48.84831],[-2.97847,48.84564]]],[[[-2.9812,48.85845],[-2.98332,48.85903],[-2.98118,48.8608],[-2.9812,48.85845]]],[[[-3.4921,48.87767],[-3.49495,48.87909],[-3.49082,48.88012],[-3.4921,48.87767]]],[[[-2.95101,48.77991],[-2.94676,48.78055],[-2.94803,48.77841],[-2.95101,48.77991]]],[[[-3.01977,48.83916],[-3.02109,48.84442],[-3.01613,48.84465],[-3.01977,48.83916]]],[[[-2.98531,48.84452],[-2.98863,48.84864],[-2.98619,48.84885],[-2.98531,48.84452]]],[[[-2.99084,48.83817],[-2.99227,48.8399],[-2.98856,48.84035],[-2.99084,48.83817]]],[[[-2.19377,48.61835],[-2.18927,48.62704],[-2.18678,48.62281],[-2.19377,48.61835]]],[[[-3.00232,48.83632],[-3.01153,48.84247],[-2.98916,48.86381],[-3.00232,48.83632]]],[[[-3.58388,48.79409],[-3.58511,48.80441],[-3.56317,48.80537],[-3.58388,48.79409]]],[[[-3.59205,48.76589],[-3.60344,48.77097],[-3.59585,48.76979],[-3.59205,48.76589]]],[[[-3.59313,48.79551],[-3.59962,48.7967],[-3.59544,48.80102],[-3.59313,48.79551]]],[[[-3.60637,48.7937],[-3.61221,48.79532],[-3.60766,48.79602],[-3.60637,48.7937]]],[[[-3.01954,48.83448],[-3.02172,48.83762],[-3.01827,48.83675],[-3.01954,48.83448]]],[[[-3.57671,48.79519],[-3.57922,48.79627],[-3.57692,48.79753],[-3.57671,48.79519]]],[[[-3.1839,48.86442],[-3.19486,48.87321],[-3.1854,48.87485],[-3.1839,48.86442]]],[[[-3.40674,48.83058],[-3.40883,48.83806],[-3.40536,48.83639],[-3.40674,48.83058]]],[[[-3.03963,48.85919],[-3.04463,48.86062],[-3.03202,48.8627],[-3.03963,48.85919]]],[[[-3.27886,48.84372],[-3.28435,48.84512],[-3.2814,48.84685],[-3.27886,48.84372]]],[[[-3.19529,48.8631],[-3.19823,48.86431],[-3.19635,48.86773],[-3.19529,48.8631]]],[[[-3.30211,48.84506],[-3.30581,48.84645],[-3.30357,48.84773],[-3.30211,48.84506]]],[[[-3.26046,48.8495],[-3.26231,48.85455],[-3.25928,48.8542],[-3.26046,48.8495]]],[[[-3.2029,48.84987],[-3.20428,48.85419],[-3.2021,48.85371],[-3.2029,48.84987]]],[[[-3.55581,48.80083],[-3.55695,48.80293],[-3.55436,48.8019],[-3.55581,48.80083]]],[[[-3.30698,48.84459],[-3.31007,48.8466],[-3.30743,48.84741],[-3.30698,48.84459]]],[[[-3.2935,48.84386],[-3.2982,48.84553],[-3.29444,48.84557],[-3.2935,48.84386]]],[[[-3.27253,48.8384],[-3.27403,48.83905],[-3.27237,48.84075],[-3.27253,48.8384]]],[[[-3.29265,48.83745],[-3.29536,48.83867],[-3.29379,48.8392],[-3.29265,48.83745]]],[[[-2.00689,48.56611],[-1.97234,48.53464],[-1.9928,48.52332],[-1.98005,48.5162],[-2.00166,48.49173],[-1.96793,48.52346],[-1.94818,48.51917],[-1.98704,48.58451],[-1.95465,48.57647],[-2.00844,48.59946],[-2.02896,48.64691],[-1.97465,48.68303],[-1.94468,48.68494],[-1.95395,48.68913],[-1.93712,48.70234],[-1.90757,48.69096],[-1.84548,48.70975],[-1.83643,48.68122],[-1.87212,48.64572],[-1.84255,48.61484],[-1.76107,48.6034],[-1.57109,48.62645],[-1.53722,48.59875],[-1.54102,48.57943],[-1.52287,48.57118],[-1.53449,48.55031],[-1.49097,48.49213],[-1.44357,48.48425],[-1.42291,48.46073],[-1.34635,48.47167],[-1.34176,48.48852],[-1.277,48.51433],[-1.27225,48.53392],[-1.24901,48.54366],[-1.07277,48.50796],[-1.06828,48.44887],[-1.08359,48.43373],[-1.05303,48.38097],[-1.06309,48.37139],[-1.04864,48.33339],[-1.10196,48.2625],[-1.05068,48.09405],[-1.02668,48.07048],[-1.035,48.03361],[-1.01714,48.00186],[-1.05029,47.98447],[-1.1248,47.98684],[-1.15827,47.95893],[-1.1931,47.89041],[-1.18905,47.87104],[-1.22305,47.85241],[-1.21631,47.83561],[-1.24459,47.77928],[-1.35911,47.79812],[-1.39465,47.82936],[-1.46257,47.83586],[-1.47487,47.83383],[-1.47054,47.80336],[-1.62363,47.76215],[-1.65561,47.71518],[-1.72206,47.69842],[-1.86401,47.70698],[-1.95381,47.67227],[-1.9717,47.69138],[-2.01291,47.66602],[-2.03908,47.66954],[-2.09125,47.64104],[-2.09683,47.54033],[-2.15121,47.52257],[-2.16361,47.4906],[-2.20667,47.51004],[-2.25047,47.49597],[-2.2981,47.51548],[-2.31697,47.46129],[-2.3962,47.4565],[-2.42808,47.47586],[-2.47941,47.44365],[-2.49633,47.4552],[-2.501,47.49272],[-2.42574,47.49417],[-2.52087,47.52695],[-2.63394,47.50651],[-2.57384,47.52408],[-2.5841,47.52644],[-2.56386,47.54717],[-2.58685,47.56352],[-2.58287,47.5433],[-2.59921,47.53297],[-2.61764,47.54439],[-2.60896,47.56554],[-2.63027,47.53353],[-2.66416,47.54857],[-2.66727,47.53789],[-2.62748,47.52514],[-2.66125,47.51913],[-2.68097,47.49264],[-2.7326,47.50562],[-2.81794,47.48775],[-2.85083,47.50183],[-2.86772,47.52893],[-2.90358,47.53435],[-2.89628,47.54202],[-2.91534,47.55563],[-2.87853,47.56382],[-2.84963,47.53934],[-2.82982,47.54852],[-2.82692,47.53783],[-2.82436,47.55394],[-2.79839,47.53801],[-2.78493,47.55168],[-2.73078,47.5423],[-2.7138,47.5794],[-2.68931,47.59088],[-2.69009,47.63645],[-2.71245,47.64841],[-2.69562,47.61098],[-2.71645,47.61494],[-2.71341,47.59475],[-2.77289,47.61755],[-2.73966,47.6137],[-2.7599,47.64057],[-2.79155,47.6431],[-2.78158,47.62258],[-2.8673,47.61719],[-2.8587,47.60145],[-2.88292,47.60243],[-2.88622,47.58119],[-2.91778,47.58233],[-2.92744,47.60123],[-2.934,47.58664],[-2.94229,47.62579],[-2.97555,47.65777],[-2.95699,47.6208],[-2.96403,47.59051],[-2.93472,47.56115],[-2.94464,47.55632],[-2.97607,47.55904],[-2.99443,47.59069],[-2.98821,47.56916],[-3.02302,47.59145],[-3.01999,47.57068],[-3.03805,47.58183],[-3.08958,47.56451],[-3.12703,47.59836],[-3.12975,47.52191],[-3.08097,47.47038],[-3.14515,47.48923],[-3.15468,47.52366],[-3.13868,47.5402],[-3.1435,47.5856],[-3.21074,47.64182],[-3.19623,47.67786],[-3.16332,47.67983],[-3.13567,47.69776],[-3.16178,47.69463],[-3.14717,47.71214],[-3.10438,47.71753],[-3.11093,47.72592],[-3.15262,47.71891],[-3.13554,47.72889],[-3.14712,47.75235],[-3.17135,47.73138],[-3.20083,47.74489],[-3.17314,47.72994],[-3.16923,47.70971],[-3.19868,47.69951],[-3.19134,47.69246],[-3.21072,47.69835],[-3.21212,47.64613],[-3.29412,47.68758],[-3.35374,47.68877],[-3.35246,47.70038],[-3.27938,47.68838],[-3.29656,47.70302],[-3.36394,47.70906],[-3.34438,47.71417],[-3.34697,47.7328],[-3.30571,47.74811],[-3.28241,47.79247],[-3.34425,47.74159],[-3.38994,47.82168],[-3.35583,47.73241],[-3.3832,47.70429],[-3.45276,47.69534],[-3.52865,47.76544],[-3.5201,47.79757],[-3.53829,47.83602],[-3.52586,47.85315],[-3.5366,47.85635],[-3.54068,47.82747],[-3.52125,47.79887],[-3.53694,47.76611],[-3.64006,47.77358],[-3.64226,47.78826],[-3.68316,47.77776],[-3.72213,47.80203],[-3.64656,47.82271],[-3.69659,47.82099],[-3.69552,47.83106],[-3.73046,47.80344],[-3.74899,47.84514],[-3.7579,47.83579],[-3.74158,47.7983],[-3.85605,47.78961],[-3.8985,47.8334],[-3.8843,47.85852],[-3.91937,47.85637],[-3.91138,47.86646],[-3.94745,47.90024],[-3.96816,47.89615],[-3.97729,47.90968],[-3.99182,47.89708],[-3.97468,47.85537],[-4.03565,47.8479],[-4.08292,47.86187],[-4.04696,47.85166],[-4.07895,47.87661],[-4.09041,47.86285],[-4.11253,47.87273],[-4.14061,47.89977],[-4.14043,47.9191],[-4.10136,47.94319],[-4.07899,47.93652],[-4.08539,47.94998],[-4.10687,47.94216],[-4.09451,47.96143],[-4.11355,47.97581],[-4.10164,47.9716],[-4.11738,47.93151],[-4.14078,47.92634],[-4.15801,47.89569],[-4.17409,47.90748],[-4.13041,47.88997],[-4.11331,47.86204],[-4.16835,47.83975],[-4.17163,47.87437],[-4.20676,47.86622],[-4.16248,47.83395],[-4.17641,47.80505],[-4.26569,47.7906],[-4.36807,47.79625],[-4.37532,47.81636],[-4.34675,47.84477],[-4.36607,47.89362],[-4.42255,47.96244],[-4.53163,48.00941],[-4.53367,48.03223],[-4.496,48.0385],[-4.53323,48.03496],[-4.56027,48.00208],[-4.63689,48.02855],[-4.73449,48.03817],[-4.70788,48.04406],[-4.71631,48.06278],[-4.42081,48.10537],[-4.29649,48.09245],[-4.27281,48.14612],[-4.32114,48.20399],[-4.36907,48.20505],[-4.46391,48.23938],[-4.49527,48.23436],[-4.55413,48.16777],[-4.5528,48.20648],[-4.57156,48.23147],[-4.54329,48.24908],[-4.61931,48.25614],[-4.62944,48.2808],[-4.57856,48.27744],[-4.56693,48.28569],[-4.57196,48.32616],[-4.53443,48.34186],[-4.55959,48.30565],[-4.53577,48.28394],[-4.50769,48.31071],[-4.513,48.29707],[-4.49479,48.28165],[-4.41911,48.29313],[-4.39566,48.27471],[-4.2773,48.29658],[-4.26547,48.29294],[-4.28629,48.28314],[-4.25573,48.26358],[-4.26575,48.25912],[-4.2087,48.24197],[-4.11357,48.24456],[-4.11849,48.22113],[-4.10378,48.25095],[-4.14178,48.24218],[-4.24318,48.2566],[-4.27943,48.27782],[-4.18737,48.29524],[-4.27771,48.31146],[-4.25185,48.32321],[-4.32907,48.31497],[-4.30907,48.32738],[-4.31776,48.33481],[-4.27084,48.3532],[-4.32738,48.34098],[-4.3197,48.35854],[-4.3808,48.32571],[-4.41524,48.32423],[-4.39636,48.34084],[-4.45259,48.32606],[-4.42902,48.36562],[-4.2736,48.44344],[-4.40169,48.3896],[-4.43372,48.39639],[-4.43528,48.38339],[-4.48187,48.38252],[-4.61,48.33836],[-4.6859,48.35316],[-4.71666,48.3296],[-4.77478,48.33588],[-4.78093,48.35429],[-4.74608,48.36565],[-4.78263,48.36145],[-4.76091,48.37275],[-4.79153,48.41305],[-4.76645,48.46431],[-4.72629,48.47419],[-4.75929,48.47036],[-4.7771,48.4962],[-4.75296,48.54392],[-4.63502,48.57595],[-4.51423,48.54969],[-4.60365,48.57499],[-4.59979,48.60697],[-4.59531,48.59329],[-4.53645,48.59598],[-4.48124,48.57299],[-4.5698,48.61643],[-4.54166,48.62433],[-4.54818,48.63252],[-4.49808,48.6224],[-4.40246,48.63734],[-4.43334,48.65153],[-4.34507,48.67721],[-4.29407,48.66174],[-4.31615,48.63775],[-4.30297,48.63297],[-4.27051,48.64953],[-4.2014,48.65182],[-4.22224,48.65793],[-4.18799,48.68568],[-4.13284,48.69506],[-4.0577,48.67468],[-4.0663,48.6833],[-4.04936,48.7053],[-4.00718,48.72363],[-4.0009,48.7118],[-3.986,48.7277],[-3.96506,48.72177],[-3.9703,48.68237],[-3.94998,48.67262],[-3.95436,48.61724],[-3.93894,48.60072],[-3.9505,48.65287],[-3.92281,48.67097],[-3.89012,48.66839],[-3.9021,48.65418],[-3.85858,48.62954],[-3.86119,48.60834],[-3.84598,48.62676],[-3.82072,48.62761],[-3.84543,48.62892],[-3.86442,48.67033],[-3.85346,48.66177],[-3.83093,48.7119],[-3.73263,48.70682],[-3.67607,48.68714],[-3.64461,48.69624],[-3.65914,48.65921],[-3.62701,48.68535],[-3.6037,48.66887],[-3.57298,48.67492],[-3.58156,48.72079],[-3.55537,48.72751],[-3.55031,48.74816],[-3.58499,48.75701],[-3.58571,48.77618],[-3.53518,48.80203],[-3.53963,48.81994],[-3.51957,48.81898],[-3.52597,48.82807],[-3.50352,48.8387],[-3.50886,48.83004],[-3.43335,48.81869],[-3.44056,48.79831],[-3.42951,48.79737],[-3.31934,48.83803],[-3.26956,48.8339],[-3.22659,48.86802],[-3.20346,48.82551],[-3.22303,48.78741],[-3.16794,48.85315],[-3.07779,48.87849],[-3.09804,48.8685],[-3.07666,48.85919],[-3.08648,48.86346],[-3.0974,48.83463],[-3.07529,48.83158],[-3.12392,48.76344],[-3.1022,48.76632],[-3.06828,48.82123],[-3.00795,48.81813],[-3.00862,48.80416],[-3.04566,48.78754],[-3.00994,48.78215],[-3.01679,48.76849],[-2.9332,48.75747],[-2.94115,48.71878],[-2.82651,48.65189],[-2.82386,48.59721],[-2.71696,48.55533],[-2.7248,48.54691],[-2.68581,48.49336],[-2.67933,48.53353],[-2.63819,48.5238],[-2.55353,48.59111],[-2.47343,48.62252],[-2.48854,48.64378],[-2.44185,48.65111],[-2.41256,48.6349],[-2.31772,48.68865],[-2.30884,48.66982],[-2.28578,48.66766],[-2.3336,48.62272],[-2.31206,48.61117],[-2.24742,48.64605],[-2.25617,48.6357],[-2.21062,48.58249],[-2.19262,48.60565],[-2.17292,48.57787],[-2.14895,48.61855],[-2.13007,48.60487],[-2.14883,48.6263],[-2.13753,48.63346],[-2.06216,48.64041],[-1.99578,48.58266],[-2.00689,48.56611]]],[[[-4.0004,47.72283],[-4.00391,47.72264],[-3.9976,47.72519],[-4.0004,47.72283]]],[[[-3.99181,48.7364],[-4.03559,48.74207],[-4.01505,48.75216],[-3.99181,48.7364]]],[[[-3.957,47.71206],[-3.95924,47.71632],[-3.95137,47.72157],[-3.957,47.71206]]],[[[-4.01058,47.71578],[-4.01192,47.71909],[-4.00718,47.71696],[-4.01058,47.71578]]],[[[-4.02902,47.77405],[-4.02715,47.77799],[-4.02052,47.77678],[-4.02902,47.77405]]],[[[-4.846,48.03154],[-4.86798,48.03963],[-4.84963,48.03836],[-4.846,48.03154]]],[[[-3.99706,47.70114],[-4.00214,47.70776],[-3.99277,47.70827],[-3.99706,47.70114]]],[[[-3.79886,47.78308],[-3.803,47.78417],[-3.7995,47.78458],[-3.79886,47.78308]]],[[[-5.01189,48.42399],[-5.01406,48.42578],[-5.01043,48.43027],[-5.01189,48.42399]]],[[[-4.63347,48.59991],[-4.63738,48.60015],[-4.63672,48.60227],[-4.63347,48.59991]]],[[[-4.05985,48.70267],[-4.07164,48.70471],[-4.06418,48.70662],[-4.05985,48.70267]]],[[[-4.17813,47.85103],[-4.1935,47.8642],[-4.18202,47.86733],[-4.17813,47.85103]]],[[[-4.17666,47.84074],[-4.18414,47.846],[-4.1815,47.84742],[-4.17666,47.84074]]],[[[-4.18354,47.84875],[-4.18667,47.85019],[-4.18371,47.85067],[-4.18354,47.84875]]],[[[-4.33721,48.10015],[-4.3392,48.10301],[-4.33544,48.10164],[-4.33721,48.10015]]],[[[-4.53754,48.30184],[-4.53617,48.30419],[-4.53505,48.30291],[-4.53754,48.30184]]],[[[-4.5308,48.30352],[-4.52972,48.30644],[-4.52867,48.30524],[-4.5308,48.30352]]],[[[-4.9592,48.38941],[-4.96613,48.39927],[-4.95344,48.39607],[-4.9592,48.38941]]],[[[-4.98237,48.41991],[-4.98127,48.41703],[-4.98546,48.41689],[-4.98237,48.41991]]],[[[-4.78746,48.43734],[-4.79013,48.43798],[-4.7887,48.43889],[-4.78746,48.43734]]],[[[-4.61628,48.58497],[-4.61951,48.58531],[-4.61625,48.58677],[-4.61628,48.58497]]],[[[-4.86234,48.3413],[-4.85773,48.35072],[-4.84159,48.35491],[-4.86234,48.3413]]],[[[-4.89439,48.37236],[-4.90978,48.37322],[-4.89796,48.37588],[-4.89439,48.37236]]],[[[-4.94482,48.36993],[-4.93523,48.37534],[-4.93368,48.37299],[-4.94482,48.36993]]],[[[-4.94984,48.39787],[-4.95258,48.40083],[-4.94747,48.40259],[-4.94984,48.39787]]],[[[-4.89782,48.37814],[-4.90021,48.38301],[-4.89731,48.3803],[-4.89782,48.37814]]],[[[-3.92245,48.6796],[-3.92683,48.6808],[-3.92604,48.69673],[-3.92245,48.6796]]],[[[-4.57115,48.6051],[-4.5742,48.60799],[-4.56926,48.60762],[-4.57115,48.6051]]],[[[-4.55386,48.6273],[-4.55655,48.62902],[-4.55168,48.62927],[-4.55386,48.6273]]],[[[-4.5682,48.63739],[-4.57067,48.63797],[-4.56969,48.64019],[-4.5682,48.63739]]],[[[-4.593,48.62228],[-4.59474,48.62543],[-4.59299,48.6255],[-4.593,48.62228]]],[[[-4.4044,48.63862],[-4.40598,48.6393],[-4.40351,48.64049],[-4.4044,48.63862]]],[[[-4.27801,48.28186],[-4.28104,48.28232],[-4.2784,48.28482],[-4.27801,48.28186]]],[[[-5.1026,48.43612],[-5.1143,48.43715],[-5.09469,48.44815],[-5.10363,48.45529],[-5.13399,48.44845],[-5.13319,48.45854],[-5.06641,48.48192],[-5.04387,48.46386],[-5.1026,48.43612]]],[[[-5.09629,48.47755],[-5.10224,48.48056],[-5.08996,48.47896],[-5.09629,48.47755]]],[[[-4.77512,48.52668],[-4.77691,48.5301],[-4.77334,48.53082],[-4.77512,48.52668]]],[[[-2.15926,48.6372],[-2.16176,48.6385],[-2.15857,48.63938],[-2.15926,48.6372]]],[[[-1.83982,48.70717],[-1.83923,48.7098],[-1.83556,48.71223],[-1.83982,48.70717]]],[[[-1.95373,48.69689],[-1.95481,48.6992],[-1.95253,48.69878],[-1.95373,48.69689]]],[[[-2.07416,48.67467],[-2.07352,48.67726],[-2.06783,48.67699],[-2.07416,48.67467]]],[[[-3.01322,47.41074],[-3.01772,47.41124],[-3.01214,47.41191],[-3.01322,47.41074]]],[[[-3.42179,47.62],[-3.46537,47.62148],[-3.51509,47.64713],[-3.43755,47.64406],[-3.41681,47.63427],[-3.42179,47.62]]],[[[-2.9974,47.39276],[-2.99932,47.3947],[-2.99567,47.39536],[-2.9974,47.39276]]],[[[-3.19531,47.29175],[-3.19711,47.29306],[-3.19484,47.29353],[-3.19531,47.29175]]],[[[-2.96893,47.35552],[-2.97266,47.35761],[-2.96854,47.35753],[-2.96893,47.35552]]],[[[-2.8837,47.34309],[-2.86336,47.34897],[-2.86437,47.33684],[-2.8852,47.33221],[-2.8837,47.34309]]],[[[-3.23545,47.32382],[-3.26066,47.35695],[-3.24888,47.38183],[-3.15538,47.36155],[-3.1425,47.33182],[-3.06054,47.31283],[-3.08823,47.2806],[-3.17383,47.30184],[-3.22474,47.29628],[-3.24961,47.31668],[-3.23545,47.32382]]],[[[-2.94815,47.37334],[-2.99431,47.39899],[-2.93938,47.3947],[-2.94815,47.37334]]],[[[-3.2514,47.38631],[-3.25305,47.38929],[-3.24912,47.38926],[-3.2514,47.38631]]],[[[-2.59313,47.52759],[-2.59191,47.5253],[-2.59472,47.52617],[-2.59313,47.52759]]],[[[-3.13883,47.71281],[-3.13646,47.71377],[-3.13674,47.71205],[-3.13883,47.71281]]],[[[-2.85956,47.55989],[-2.84247,47.60451],[-2.82832,47.59131],[-2.8496,47.58738],[-2.85956,47.55989]]],[[[-2.80961,47.57826],[-2.79598,47.6041],[-2.78656,47.59483],[-2.80961,47.57826]]],[[[-2.72741,47.57259],[-2.73874,47.58377],[-2.72668,47.57961],[-2.72741,47.57259]]],[[[-2.78595,47.56848],[-2.79443,47.57018],[-2.79191,47.57778],[-2.78595,47.56848]]],[[[-2.75329,47.6022],[-2.77026,47.60613],[-2.76489,47.60985],[-2.75329,47.6022]]],[[[-2.77709,47.58636],[-2.78304,47.59079],[-2.7753,47.5955],[-2.77709,47.58636]]],[[[-2.90904,47.56668],[-2.912,47.5757],[-2.90875,47.57724],[-2.90904,47.56668]]],[[[-2.89901,47.57105],[-2.89853,47.57635],[-2.89574,47.57296],[-2.89901,47.57105]]],[[[-2.72586,47.5906],[-2.72945,47.59256],[-2.72333,47.59337],[-2.72586,47.5906]]],[[[-2.88918,47.56523],[-2.88877,47.57044],[-2.8856,47.56883],[-2.88918,47.56523]]],[[[-2.78787,47.56142],[-2.79531,47.56474],[-2.78724,47.56329],[-2.78787,47.56142]]],[[[-2.7743,47.61285],[-2.78423,47.61552],[-2.77476,47.61488],[-2.7743,47.61285]]],[[[-2.8469,47.60959],[-2.85187,47.61076],[-2.85079,47.61329],[-2.8469,47.60959]]],[[[-2.8468,47.55397],[-2.84492,47.56001],[-2.84271,47.55776],[-2.8468,47.55397]]],[[[-2.92842,47.57739],[-2.93082,47.58143],[-2.92583,47.5789],[-2.92842,47.57739]]],[[[-2.80915,47.59424],[-2.81293,47.59812],[-2.8085,47.59647],[-2.80915,47.59424]]],[[[-2.80512,47.56079],[-2.80757,47.56406],[-2.80336,47.56326],[-2.80512,47.56079]]],[[[-2.83027,47.55656],[-2.83267,47.55857],[-2.82879,47.55839],[-2.83027,47.55656]]],[[[-2.84854,47.56021],[-2.85076,47.5611],[-2.84671,47.56128],[-2.84854,47.56021]]],[[[-2.9298,47.58391],[-2.93327,47.58465],[-2.93062,47.58612],[-2.9298,47.58391]]],[[[-2.8046,47.60714],[-2.80562,47.60863],[-2.8009,47.60942],[-2.8046,47.60714]]],[[[-2.74768,47.5749],[-2.74993,47.57621],[-2.74633,47.57618],[-2.74768,47.5749]]],[[[-2.88379,47.56525],[-2.88737,47.56298],[-2.88607,47.56546],[-2.88379,47.56525]]],[[[-2.76314,47.59036],[-2.76477,47.59195],[-2.76232,47.59216],[-2.76314,47.59036]]],[[[-2.91346,47.5777],[-2.91461,47.57987],[-2.91222,47.57862],[-2.91346,47.5777]]],[[[-2.86899,47.57664],[-2.86788,47.57894],[-2.8666,47.57811],[-2.86899,47.57664]]],[[[-2.72368,47.59848],[-2.72593,47.59965],[-2.72346,47.60043],[-2.72368,47.59848]]],[[[-3.16005,47.71906],[-3.15621,47.7201],[-3.16059,47.707],[-3.16005,47.71906]]],[[[-3.17005,47.68541],[-3.17288,47.68766],[-3.1702,47.68878],[-3.17005,47.68541]]],[[[-3.17801,47.68629],[-3.17898,47.68926],[-3.17658,47.68735],[-3.17801,47.68629]]],[[[-3.18521,47.68609],[-3.18693,47.68794],[-3.18391,47.68714],[-3.18521,47.68609]]]]}},{"type":"Feature","properties":{"id":"75"},"geometry":{"type":"MultiPolygon","coordinates":[[[[1.41519,46.34722],[1.52671,46.42686],[1.54428,46.41756],[1.5462,46.39346],[1.60764,46.42194],[1.62001,46.42166],[1.61425,46.39953],[1.6424,46.38514],[1.67991,46.41676],[1.72704,46.39021],[1.76027,46.42714],[1.74976,46.44782],[1.78249,46.45483],[1.83978,46.42572],[1.97811,46.43977],[2.09226,46.40914],[2.12037,46.42205],[2.25456,46.4256],[2.28105,46.42041],[2.28582,46.38811],[2.3351,46.37323],[2.30541,46.35573],[2.31354,46.33508],[2.36204,46.31339],[2.39186,46.32998],[2.426,46.28471],[2.44303,46.295],[2.48076,46.28101],[2.52805,46.18633],[2.56062,46.16684],[2.55315,46.08053],[2.60089,46.03405],[2.59322,45.99299],[2.61087,45.97415],[2.56357,45.95559],[2.56991,45.94721],[2.54405,45.92841],[2.5554,45.91372],[2.4923,45.86723],[2.44999,45.86628],[2.44996,45.84941],[2.39322,45.82971],[2.44701,45.7572],[2.49158,45.74221],[2.52571,45.69341],[2.51259,45.66976],[2.52736,45.65472],[2.51084,45.63899],[2.4875,45.6424],[2.46342,45.5997],[2.49565,45.55692],[2.51684,45.55302],[2.50974,45.4731],[2.48786,45.41979],[2.52756,45.39359],[2.48013,45.37031],[2.3875,45.41196],[2.35066,45.41292],[2.36936,45.3865],[2.35166,45.32783],[2.31774,45.32296],[2.19536,45.22085],[2.20133,45.17979],[2.23174,45.17006],[2.20256,45.13916],[2.17879,45.1363],[2.1892,45.1177],[2.17455,45.08226],[2.1426,45.08662],[2.09743,45.05847],[2.14218,45.00033],[2.13645,44.99016],[1.98855,44.97486],[1.94916,44.95252],[1.92718,44.9788],[1.90665,44.97698],[1.82082,44.92722],[1.74934,44.93758],[1.7508,44.95573],[1.70877,44.96964],[1.70031,44.9892],[1.62596,45.03377],[1.55435,45.02931],[1.53183,45.04508],[1.40927,45.006],[1.44196,44.9209],[1.41968,44.90404],[1.44253,44.8797],[1.36595,44.84579],[1.36595,44.81518],[1.29827,44.79619],[1.31605,44.74037],[1.22455,44.68427],[1.14882,44.67028],[1.15379,44.63941],[1.09459,44.59234],[1.10321,44.57173],[1.07841,44.5748],[1.01539,44.5376],[0.98654,44.54738],[1.03421,44.43226],[1.06051,44.41532],[1.06067,44.37145],[0.94576,44.34783],[0.91985,44.38442],[0.89536,44.37736],[0.87167,44.31235],[0.91431,44.30145],[0.94713,44.26805],[0.9054,44.19624],[0.85633,44.18922],[0.85228,44.17648],[0.88996,44.16742],[0.894,44.13789],[0.85781,44.12757],[0.7961,44.14562],[0.79889,44.11064],[0.75683,44.1074],[0.73971,44.06662],[0.68567,44.04617],[0.67709,44.02697],[0.59376,44.07929],[0.55547,44.05475],[0.45952,44.05524],[0.43313,44.02928],[0.38439,44.0086],[0.32079,44.00821],[0.3177,43.99461],[0.21003,44.01971],[0.15046,43.97365],[0.13181,44.00079],[0.0725,43.98095],[0.05683,43.94926],[0.07325,43.91902],[0.06183,43.90164],[-0.01718,43.92641],[0.00673,43.95374],[-0.03096,43.97993],[-0.10256,43.92728],[-0.1464,43.93946],[-0.2311,43.9076],[-0.23934,43.89828],[-0.19554,43.88274],[-0.18666,43.86407],[-0.20302,43.86061],[-0.18813,43.83256],[-0.19449,43.80846],[-0.22635,43.80905],[-0.2181,43.75417],[-0.19414,43.73702],[-0.24325,43.71222],[-0.25802,43.67375],[-0.24346,43.65953],[-0.26338,43.65278],[-0.2796,43.61818],[-0.25531,43.61546],[-0.23821,43.58266],[-0.18074,43.59467],[-0.09605,43.57792],[-0.09497,43.54814],[-0.06044,43.54054],[-0.04122,43.51327],[-0.04957,43.49192],[-0.01782,43.47215],[-0.06303,43.46346],[-0.0696,43.43297],[-0.05078,43.41959],[-0.06231,43.4178],[-0.04298,43.4102],[-0.00632,43.44384],[0.00767,43.42374],[-0.00483,43.37706],[0.0295,43.34615],[0.01277,43.32753],[-0.02537,43.32962],[-0.04392,43.30446],[-0.01701,43.27045],[-0.04645,43.22512],[-0.07086,43.22429],[-0.06787,43.17712],[-0.09753,43.1682],[-0.1177,43.18033],[-0.14613,43.12824],[-0.19384,43.11502],[-0.18644,43.08427],[-0.19922,43.06779],[-0.18156,43.05254],[-0.22086,43.03488],[-0.25266,43.03938],[-0.2627,43.0114],[-0.28724,43.00592],[-0.2803,42.93773],[-0.32717,42.9165],[-0.31086,42.85314],[-0.38337,42.801],[-0.44348,42.79592],[-0.50894,42.82552],[-0.52973,42.79153],[-0.56235,42.78052],[-0.56486,42.80117],[-0.59854,42.80478],[-0.60925,42.83496],[-0.67562,42.88006],[-0.73185,42.89605],[-0.73089,42.93869],[-0.75164,42.96694],[-0.81002,42.95143],[-0.9098,42.9636],[-0.94582,42.95357],[-1.0146,42.99308],[-1.07076,42.99768],[-1.11251,43.02172],[-1.14457,43.01317],[-1.1641,43.03486],[-1.22562,43.05458],[-1.26084,43.04363],[-1.30203,43.06745],[-1.27702,43.11272],[-1.28932,43.11575],[-1.33847,43.10086],[-1.35165,43.03195],[-1.44122,43.04631],[-1.47321,43.08676],[-1.4192,43.12675],[-1.38527,43.19762],[-1.37779,43.23013],[-1.39461,43.26282],[-1.53189,43.29351],[-1.56001,43.28961],[-1.57661,43.24988],[-1.60867,43.25191],[-1.62876,43.2818],[-1.62254,43.30329],[-1.66853,43.31486],[-1.7251,43.29833],[-1.73771,43.3304],[-1.78713,43.35137],[-1.79235,43.3706],[-1.66262,43.39118],[-1.60145,43.43329],[-1.4482,43.64228],[-1.30517,44.17796],[-1.25674,44.44432],[-1.25861,44.54713],[-1.21214,44.59951],[-1.19524,44.65719],[-1.15751,44.66267],[-1.14948,44.64741],[-1.09001,44.64131],[-1.01169,44.64943],[-1.02575,44.67689],[-1.06928,44.69624],[-1.0462,44.69224],[-1.05997,44.70972],[-1.16193,44.7749],[-1.23159,44.69463],[-1.24486,44.62544],[-1.26045,44.62567],[-1.16294,45.29583],[-1.15619,45.47611],[-1.08766,45.56414],[-0.993,45.57718],[-0.99026,45.59009],[-1.02032,45.62152],[-1.05133,45.62089],[-1.20932,45.6967],[-1.23089,45.69134],[-1.19912,45.67489],[-1.22829,45.67506],[-1.24257,45.78157],[-1.1337,45.80276],[-1.17024,45.85593],[-1.11639,45.85935],[-1.07388,45.92086],[-1.09597,45.94201],[-1.07211,45.94945],[-1.08586,45.98149],[-1.11432,46.00157],[-1.09316,45.99182],[-1.05317,46.00338],[-1.06068,46.043],[-1.0899,46.05945],[-1.10073,46.0938],[-1.14334,46.10852],[-1.1238,46.11569],[-1.12823,46.12655],[-1.16966,46.13824],[-1.17144,46.15376],[-1.24204,46.15745],[-1.20012,46.1925],[-1.199,46.21325],[-1.11216,46.26573],[-1.12312,46.31767],[-1.07547,46.3175],[-1.05571,46.34564],[-0.93108,46.37063],[-0.9631,46.32262],[-0.93102,46.31004],[-0.84948,46.31777],[-0.83988,46.34037],[-0.79672,46.33914],[-0.80075,46.32448],[-0.72777,46.30383],[-0.70432,46.3199],[-0.64841,46.3169],[-0.6059,46.35752],[-0.56704,46.35903],[-0.5378,46.38647],[-0.61018,46.41374],[-0.62088,46.39046],[-0.63457,46.39563],[-0.63684,46.43231],[-0.61052,46.45001],[-0.63749,46.51904],[-0.60241,46.54205],[-0.62057,46.57354],[-0.62018,46.62626],[-0.65272,46.63676],[-0.63699,46.66333],[-0.68073,46.68694],[-0.6627,46.70965],[-0.72519,46.76481],[-0.71914,46.79801],[-0.69897,46.8089],[-0.7844,46.84626],[-0.82519,46.88377],[-0.80954,46.9172],[-0.85706,46.9352],[-0.84773,46.94419],[-0.881,46.94646],[-0.86058,46.9491],[-0.87712,46.96854],[-0.89801,46.96691],[-0.89196,46.97582],[-0.8584,46.96901],[-0.84772,46.98615],[-0.77955,47.00415],[-0.71588,46.98388],[-0.59549,46.99795],[-0.54253,47.03234],[-0.5573,47.06437],[-0.49445,47.08309],[-0.45956,47.08241],[-0.47984,47.0708],[-0.47256,47.05769],[-0.40932,47.06629],[-0.39592,47.09159],[-0.17955,47.108],[-0.14342,47.10347],[-0.17902,47.07017],[-0.1289,47.05424],[-0.0859,47.10101],[-0.03562,47.08626],[-0.03165,47.13067],[0.01901,47.17576],[0.07839,47.14633],[0.07637,47.12393],[0.11782,47.12937],[0.15685,47.10334],[0.18151,47.11379],[0.19486,47.09564],[0.17577,47.06064],[0.208,47.05323],[0.24554,47.07129],[0.26762,47.0675],[0.26677,47.04868],[0.30242,47.05301],[0.30884,46.99944],[0.29309,46.99003],[0.318,46.9344],[0.37095,46.94842],[0.43871,46.92958],[0.50519,46.9599],[0.59389,46.95638],[0.59747,46.97587],[0.56735,47.00012],[0.59056,47.00672],[0.69257,46.97431],[0.7036,46.90765],[0.75405,46.85963],[0.79384,46.85122],[0.7868,46.84046],[0.80522,46.83131],[0.81166,46.79639],[0.92495,46.69999],[0.8943,46.62574],[0.91602,46.5993],[0.96367,46.57107],[1.01476,46.56776],[1.03319,46.53711],[1.09828,46.53554],[1.14594,46.5064],[1.15182,46.4487],[1.20717,46.43459],[1.17728,46.38395],[1.18599,46.37797],[1.20554,46.38815],[1.22495,46.36674],[1.31225,46.37292],[1.32281,46.38548],[1.3126,46.39272],[1.35602,46.40012],[1.41519,46.34722]],[[-0.10333,43.35858],[-0.09023,43.35935],[-0.08657,43.33616],[-0.10928,43.33792],[-0.11339,43.3195],[-0.0703,43.31025],[-0.0625,43.34671],[-0.08317,43.37135],[-0.10728,43.37073],[-0.10333,43.35858]],[[-0.10308,43.24282],[-0.07929,43.27166],[-0.09618,43.28548],[-0.08934,43.30084],[-0.11149,43.3104],[-0.1383,43.2742],[-0.12194,43.24335],[-0.10308,43.24282]]],[[[-1.11427,45.95173],[-1.12028,45.95996],[-1.10533,45.95439],[-1.11427,45.95173]]],[[[-1.4809,46.21003],[-1.41294,46.23014],[-1.43967,46.21407],[-1.35472,46.20611],[-1.25893,46.16295],[-1.27754,46.14466],[-1.31371,46.14372],[-1.4616,46.20212],[-1.52758,46.20128],[-1.56096,46.2363],[-1.50058,46.25818],[-1.47578,46.23592],[-1.51399,46.2321],[-1.50926,46.21873],[-1.4809,46.21003]]],[[[-1.17559,46.008],[-1.17596,46.01975],[-1.15428,46.01929],[-1.17559,46.008]]],[[[-1.25027,45.84597],[-1.26615,45.87817],[-1.38886,45.9577],[-1.38787,46.00002],[-1.4118,46.04552],[-1.37664,46.0402],[-1.30662,45.9911],[-1.23755,45.98391],[-1.23121,45.9234],[-1.18741,45.8866],[-1.19713,45.83191],[-1.23185,45.80177],[-1.25027,45.84597]]],[[[-1.23902,44.59278],[-1.22951,44.58872],[-1.2438,44.57299],[-1.23902,44.59278]]],[[[-1.02997,44.6492],[-1.0292,44.66125],[-1.01974,44.65698],[-1.02997,44.6492]]],[[[-1.02374,44.64416],[-1.02681,44.6502],[-1.02108,44.64713],[-1.02374,44.64416]]],[[[-1.17789,44.69736],[-1.18516,44.69722],[-1.17943,44.70398],[-1.17789,44.69736]]],[[[-1.18001,44.69279],[-1.18471,44.69512],[-1.18183,44.69683],[-1.18001,44.69279]]]]}},{"type":"Feature","properties":{"id":"76"},"geometry":{"type":"MultiPolygon","coordinates":[[[[1.78613,42.57362],[1.73173,42.58806],[1.72628,42.61548],[1.60357,42.62585],[1.54396,42.6542],[1.4801,42.65139],[1.47423,42.61089],[1.43783,42.60321],[1.3866,42.68952],[1.33283,42.7245],[1.2246,42.72425],[1.16986,42.70798],[1.08296,42.78341],[0.99137,42.78658],[0.96414,42.80416],[0.93077,42.78867],[0.85191,42.82676],[0.70838,42.8614],[0.66406,42.84207],[0.66969,42.80209],[0.65241,42.7877],[0.66681,42.7754],[0.64895,42.75862],[0.67891,42.72436],[0.67647,42.69101],[0.59732,42.70584],[0.58916,42.69495],[0.42764,42.6904],[0.3601,42.72429],[0.29063,42.67673],[0.25271,42.71829],[0.18529,42.73439],[-0.01064,42.68439],[-0.05265,42.69304],[-0.06884,42.7179],[-0.1068,42.7205],[-0.15458,42.79275],[-0.18661,42.78667],[-0.30156,42.83984],[-0.3252,42.91192],[-0.2803,42.93773],[-0.28878,43.0003],[-0.26662,43.00856],[-0.25266,43.03938],[-0.22395,43.03369],[-0.18965,43.05202],[-0.19384,43.11502],[-0.14613,43.12824],[-0.12041,43.17578],[-0.0748,43.17675],[-0.0716,43.21982],[-0.04946,43.21718],[-0.01864,43.26821],[-0.0455,43.29583],[-0.02537,43.32962],[0.007,43.32683],[0.0282,43.34352],[-0.00578,43.37302],[0.00966,43.4222],[-0.00075,43.44194],[-0.0647,43.40934],[-0.06575,43.46348],[-0.01909,43.46505],[-0.04399,43.48961],[-0.0437,43.52299],[-0.06844,43.54708],[-0.09195,43.54253],[-0.09601,43.57522],[-0.17656,43.59683],[-0.24233,43.58342],[-0.24758,43.61171],[-0.28089,43.62243],[-0.24214,43.65506],[-0.25682,43.68319],[-0.2391,43.69395],[-0.2454,43.70326],[-0.19556,43.74576],[-0.21675,43.74965],[-0.2075,43.75608],[-0.22685,43.80472],[-0.19177,43.8101],[-0.20891,43.85767],[-0.19049,43.88075],[-0.23394,43.89107],[-0.22834,43.91145],[-0.1804,43.93409],[-0.12031,43.94152],[-0.09524,43.92946],[-0.08899,43.94899],[-0.07025,43.94494],[-0.03763,43.97853],[0.00549,43.95664],[-0.01151,43.92338],[0.0524,43.8992],[0.07215,43.91193],[0.05497,43.95696],[0.07381,43.98242],[0.12808,43.99893],[0.13794,43.97688],[0.16103,43.97435],[0.16471,43.99499],[0.21404,44.02299],[0.3177,43.99461],[0.31421,44.00531],[0.38152,44.00638],[0.44365,44.03074],[0.45696,44.0526],[0.55547,44.05475],[0.60122,44.07801],[0.67074,44.02678],[0.70339,44.05525],[0.73868,44.06102],[0.75337,44.1047],[0.79796,44.11041],[0.78773,44.14276],[0.88094,44.12999],[0.88996,44.16742],[0.85363,44.17478],[0.85447,44.18631],[0.9014,44.1907],[0.92514,44.22633],[0.92803,44.26521],[0.9491,44.27185],[0.87478,44.30833],[0.89611,44.34623],[0.8872,44.36462],[0.91502,44.38409],[0.93649,44.37041],[0.94142,44.34535],[0.95669,44.36075],[1.06067,44.37145],[1.05862,44.42169],[1.03205,44.4331],[1.01206,44.50939],[0.98231,44.54265],[1.01223,44.53855],[1.07439,44.57728],[1.0949,44.57174],[1.16881,44.68002],[1.22546,44.68612],[1.31605,44.74037],[1.32282,44.76504],[1.29331,44.78984],[1.35962,44.81112],[1.36308,44.84284],[1.44192,44.87758],[1.41225,44.90979],[1.44235,44.91655],[1.40927,45.006],[1.53747,45.04669],[1.55204,45.02847],[1.57631,45.0407],[1.64424,45.02825],[1.7716,44.92699],[1.82082,44.92722],[1.83117,44.94549],[1.84169,44.93779],[1.91658,44.97831],[1.93673,44.97303],[1.94028,44.95289],[1.99148,44.97591],[2.06291,44.97651],[2.0778,44.93393],[2.10353,44.91581],[2.08395,44.89125],[2.09351,44.87237],[2.16526,44.81356],[2.16972,44.77748],[2.14846,44.76655],[2.13367,44.69526],[2.15953,44.69741],[2.17435,44.63462],[2.20627,44.61778],[2.21591,44.65069],[2.29337,44.66708],[2.32679,44.66969],[2.35453,44.64013],[2.48319,44.65034],[2.49866,44.68677],[2.55864,44.71984],[2.55057,44.75414],[2.56716,44.78065],[2.6,44.79305],[2.60361,44.83902],[2.62317,44.86647],[2.65749,44.87372],[2.67486,44.9007],[2.70522,44.90637],[2.74053,44.93999],[2.77609,44.90896],[2.77173,44.8563],[2.80418,44.87439],[2.85754,44.87528],[2.88326,44.79746],[2.93775,44.77487],[2.91255,44.76258],[2.93139,44.75299],[2.93274,44.69665],[2.98168,44.64468],[3.01653,44.71437],[3.03913,44.71499],[3.02875,44.73318],[3.04809,44.80425],[3.07172,44.83309],[3.09916,44.83291],[3.10313,44.88463],[3.1411,44.90332],[3.19236,44.86273],[3.2289,44.8862],[3.22643,44.90998],[3.24969,44.91624],[3.24169,44.93515],[3.26354,44.94263],[3.28448,44.92609],[3.3722,44.97554],[3.38178,44.95449],[3.4118,44.94666],[3.42045,44.8951],[3.4819,44.80807],[3.50858,44.82431],[3.58892,44.8264],[3.59979,44.87875],[3.63688,44.87764],[3.67364,44.85412],[3.66636,44.82878],[3.73697,44.83497],[3.81214,44.76603],[3.84248,44.77162],[3.83543,44.74804],[3.87306,44.74067],[3.8623,44.7201],[3.88211,44.69793],[3.86954,44.67825],[3.89465,44.64776],[3.90517,44.59271],[3.92831,44.57052],[3.94877,44.57289],[3.9881,44.50419],[3.98765,44.47278],[4.06123,44.40908],[4.04247,44.39464],[4.0467,44.32418],[4.13254,44.33224],[4.25373,44.26559],[4.33566,44.33968],[4.396,44.34334],[4.39538,44.29086],[4.44042,44.28342],[4.45762,44.34163],[4.50368,44.34419],[4.5587,44.30244],[4.63982,44.27999],[4.68016,44.21213],[4.70655,44.21443],[4.71993,44.18904],[4.70607,44.10775],[4.71995,44.08346],[4.76086,44.0863],[4.81838,44.01905],[4.8409,44.01293],[4.84438,43.98937],[4.8196,43.98838],[4.77902,43.93789],[4.64295,43.86326],[4.64146,43.85114],[4.66249,43.85256],[4.64602,43.83534],[4.65225,43.78805],[4.61228,43.72475],[4.62797,43.68845],[4.53985,43.70727],[4.4912,43.70056],[4.42617,43.62448],[4.46961,43.61413],[4.46289,43.59205],[4.33414,43.53545],[4.31138,43.55133],[4.32271,43.53044],[4.24316,43.50093],[4.23028,43.46019],[4.13209,43.48568],[4.1171,43.50559],[4.13912,43.5319],[4.12162,43.54708],[3.99547,43.5485],[3.89418,43.5109],[3.71581,43.40082],[3.64607,43.38477],[3.51302,43.27497],[3.42071,43.29012],[3.34689,43.27159],[3.16971,43.15876],[3.08504,43.05694],[3.05094,42.98621],[3.03913,42.93611],[3.05829,42.90916],[3.03843,42.70459],[3.02578,42.70672],[3.05412,42.54092],[3.13595,42.51692],[3.12952,42.48983],[3.17783,42.43948],[3.09035,42.42503],[3.0328,42.47491],[2.9713,42.46614],[2.94877,42.47946],[2.90461,42.45687],[2.87278,42.46706],[2.77879,42.41248],[2.73345,42.42445],[2.67229,42.40265],[2.65206,42.38776],[2.67376,42.35899],[2.66772,42.34115],[2.56187,42.35711],[2.53522,42.33399],[2.47841,42.34439],[2.42627,42.39353],[2.26139,42.43722],[2.1482,42.42005],[2.08625,42.36546],[2.01541,42.34678],[1.9698,42.37698],[1.93238,42.45446],[1.888,42.44921],[1.82696,42.48373],[1.72928,42.49805],[1.72181,42.51704],[1.73919,42.55561],[1.78613,42.57362]],[[1.96006,42.47045],[1.96935,42.45148],[2.01269,42.44834],[1.98766,42.46941],[1.98953,42.49354],[1.96006,42.47045]]],[[[3.50066,43.2629],[3.50223,43.26419],[3.50355,43.2631],[3.50066,43.2629]]],[[[-0.10308,43.24282],[-0.12134,43.2409],[-0.14002,43.26958],[-0.11787,43.30779],[-0.09574,43.30209],[-0.07929,43.27166],[-0.10308,43.24282]]],[[[-0.10333,43.35858],[-0.10728,43.37073],[-0.08702,43.37172],[-0.06317,43.34795],[-0.07999,43.30753],[-0.11339,43.3195],[-0.10928,43.33792],[-0.08657,43.33616],[-0.09023,43.35935],[-0.10333,43.35858]]]]}},{"type":"Feature","properties":{"id":"84"},"geometry":{"type":"Polygon","coordinates":[[[4.78021,46.17668],[4.89182,46.43991],[4.94237,46.51302],[4.95454,46.51269],[4.95006,46.50081],[5.01059,46.51107],[5.059,46.48454],[5.16625,46.50312],[5.16676,46.51405],[5.19999,46.5075],[5.23312,46.46129],[5.3149,46.44513],[5.30699,46.41477],[5.37147,46.3829],[5.37346,46.35224],[5.39966,46.33942],[5.40397,46.31666],[5.41683,46.34526],[5.43783,46.3157],[5.4753,46.31539],[5.45911,46.28332],[5.47221,46.26734],[5.53699,46.26828],[5.5974,46.29717],[5.64314,46.34478],[5.64443,46.3248],[5.70869,46.30985],[5.72839,46.26118],[5.85307,46.26151],[5.9092,46.28394],[5.98354,46.36304],[6.06058,46.41751],[6.16512,46.37269],[6.10237,46.28485],[6.121,46.24829],[5.97178,46.21152],[5.99529,46.18299],[5.95845,46.13382],[5.96981,46.13191],[6.06367,46.15075],[6.13121,46.1404],[6.22568,46.20222],[6.28814,46.22182],[6.3094,46.24994],[6.26305,46.25093],[6.23758,46.27775],[6.26234,46.32928],[6.30374,46.36626],[6.35064,46.3673],[6.38527,46.34053],[6.50598,46.40306],[6.72387,46.40796],[6.80366,46.39439],[6.77044,46.35519],[6.86069,46.27606],[6.80366,46.20435],[6.8127,46.18164],[6.79274,46.16364],[6.79642,46.14196],[6.89993,46.1239],[6.87558,46.04774],[6.93791,46.06328],[7.01966,45.98389],[7.01015,45.97316],[7.03761,45.9543],[7.04357,45.92435],[7.01831,45.91437],[6.99145,45.86798],[6.93371,45.84481],[6.87914,45.84915],[6.87049,45.82882],[6.81889,45.8362],[6.80484,45.81559],[6.80562,45.74846],[6.82911,45.70283],[6.90021,45.6809],[6.91719,45.65074],[7.00069,45.6399],[6.97802,45.59042],[6.99529,45.57456],[6.99119,45.53044],[7.00677,45.50172],[7.05561,45.49358],[7.04799,45.47344],[7.09979,45.46944],[7.1194,45.43273],[7.18427,45.40748],[7.13175,45.32924],[7.10962,45.3189],[7.13643,45.2808],[7.13001,45.24793],[7.07251,45.21105],[7.04488,45.22474],[6.96876,45.20806],[6.95419,45.17961],[6.89395,45.16852],[6.89438,45.13737],[6.84986,45.12716],[6.76692,45.15816],[6.74002,45.13674],[6.6829,45.13962],[6.65489,45.11745],[6.57221,45.1196],[6.53427,45.09904],[6.51042,45.109],[6.48746,45.09653],[6.48623,45.05607],[6.36488,45.07017],[6.36574,45.10096],[6.33448,45.12284],[6.30191,45.10896],[6.26057,45.12685],[6.22885,45.10831],[6.23924,45.07514],[6.22008,45.06537],[6.20393,45.01247],[6.25176,44.9967],[6.32352,44.99907],[6.31543,44.97904],[6.329,44.94732],[6.35897,44.93664],[6.34806,44.85166],[6.2886,44.87406],[6.24869,44.85236],[6.1329,44.8645],[6.05046,44.81812],[6.01594,44.83548],[5.95743,44.80837],[5.98015,44.78118],[5.95247,44.76214],[5.88524,44.74711],[5.82709,44.75969],[5.80319,44.71034],[5.83044,44.69055],[5.79062,44.65329],[5.75688,44.6611],[5.72804,44.6392],[5.64803,44.65225],[5.64619,44.60938],[5.59725,44.54327],[5.66293,44.50527],[5.62979,44.50119],[5.61631,44.47271],[5.46149,44.4993],[5.46468,44.4504],[5.49772,44.43815],[5.47285,44.42039],[5.4425,44.43306],[5.4184,44.42477],[5.44303,44.39124],[5.43832,44.3674],[5.45882,44.36851],[5.4892,44.33998],[5.52137,44.35108],[5.541,44.33115],[5.63082,44.33299],[5.60808,44.30851],[5.64194,44.29502],[5.64524,44.27443],[5.68377,44.26944],[5.67342,44.24821],[5.68642,44.19464],[5.64327,44.17072],[5.68272,44.16322],[5.67899,44.15162],[5.63114,44.15058],[5.63722,44.16234],[5.61414,44.18381],[5.57619,44.18804],[5.56951,44.1481],[5.50482,44.11627],[5.45058,44.12154],[5.43567,44.15085],[5.39053,44.15342],[5.38108,44.19592],[5.35991,44.21175],[5.30253,44.20856],[5.24923,44.23137],[5.23082,44.21193],[5.16556,44.22473],[5.16073,44.26655],[5.14872,44.26942],[5.16811,44.28992],[5.17314,44.30951],[5.16007,44.31285],[5.10789,44.2809],[5.07056,44.28922],[5.06056,44.30814],[4.92308,44.26113],[4.87905,44.26148],[4.81738,44.2297],[4.80288,44.2966],[4.74932,44.32507],[4.65902,44.32688],[4.64123,44.27439],[4.50689,44.33738],[4.46476,44.34167],[4.44042,44.28342],[4.39538,44.29086],[4.40274,44.33128],[4.38652,44.34661],[4.32577,44.33832],[4.27194,44.27122],[4.24924,44.26607],[4.17475,44.31816],[4.1484,44.31339],[4.12675,44.33773],[4.05401,44.31872],[4.04137,44.39353],[4.06844,44.40511],[4.03634,44.41918],[4.04192,44.4407],[3.99258,44.46699],[3.95472,44.56686],[3.90517,44.59271],[3.89465,44.64776],[3.86954,44.67825],[3.88417,44.69259],[3.86187,44.71057],[3.8782,44.73231],[3.83428,44.75273],[3.83356,44.77647],[3.81233,44.76878],[3.73498,44.83976],[3.66199,44.83149],[3.65985,44.87106],[3.62645,44.88025],[3.59407,44.87215],[3.57884,44.82542],[3.51035,44.82412],[3.4819,44.80807],[3.4418,44.85423],[3.40797,44.95196],[3.37031,44.96999],[3.28602,44.92638],[3.25642,44.94201],[3.22781,44.90993],[3.23453,44.88949],[3.18231,44.86373],[3.13369,44.90333],[3.10398,44.88656],[3.09894,44.83557],[3.07266,44.83744],[3.04809,44.80425],[3.04904,44.76272],[3.03108,44.74941],[3.03922,44.71706],[3.01653,44.71437],[2.97545,44.64472],[2.94167,44.67685],[2.92559,44.7271],[2.93377,44.74987],[2.91461,44.75897],[2.9333,44.76545],[2.93228,44.78337],[2.89277,44.7864],[2.84795,44.8715],[2.80418,44.87439],[2.77385,44.85474],[2.77185,44.91802],[2.74053,44.93999],[2.70522,44.90637],[2.67283,44.89923],[2.65425,44.86968],[2.63054,44.87284],[2.59695,44.82028],[2.59715,44.79076],[2.56524,44.77819],[2.55143,44.74882],[2.56042,44.72118],[2.50012,44.69019],[2.48319,44.65034],[2.35698,44.64139],[2.33448,44.64774],[2.32793,44.66799],[2.29337,44.66708],[2.21754,44.65046],[2.20885,44.61631],[2.16873,44.63861],[2.17302,44.68051],[2.13131,44.70533],[2.15413,44.77196],[2.16556,44.77152],[2.1652,44.80789],[2.086,44.88418],[2.10458,44.91977],[2.07696,44.93955],[2.06757,44.9691],[2.13645,44.99016],[2.14218,45.00033],[2.09743,45.05847],[2.1426,45.08662],[2.17455,45.08226],[2.18166,45.13316],[2.23042,45.16209],[2.20133,45.17979],[2.19189,45.20871],[2.20234,45.22698],[2.24027,45.24759],[2.26778,45.28682],[2.35976,45.33651],[2.36936,45.3865],[2.3497,45.41175],[2.38374,45.41263],[2.47662,45.37028],[2.52318,45.38281],[2.52127,45.40264],[2.48906,45.41637],[2.51684,45.55302],[2.46174,45.59556],[2.4866,45.64128],[2.52079,45.64289],[2.5264,45.69093],[2.48793,45.74356],[2.4445,45.75819],[2.39232,45.82188],[2.40367,45.83843],[2.4459,45.84496],[2.44265,45.86404],[2.49223,45.86403],[2.55501,45.91251],[2.54507,45.92706],[2.56357,45.95559],[2.61087,45.97415],[2.5933,45.99921],[2.60121,46.03117],[2.57073,46.0473],[2.5504,46.0876],[2.55973,46.1717],[2.53295,46.18084],[2.51635,46.23237],[2.47188,46.2848],[2.41759,46.29204],[2.41696,46.31072],[2.38861,46.32976],[2.37152,46.31371],[2.30099,46.34223],[2.33439,46.36558],[2.33139,46.37872],[2.28479,46.38631],[2.28335,46.44928],[2.30007,46.47053],[2.32787,46.47377],[2.32889,46.49549],[2.35985,46.51588],[2.49695,46.53367],[2.49652,46.52233],[2.53665,46.5197],[2.61496,46.55328],[2.60029,46.5919],[2.57929,46.59748],[2.59421,46.63282],[2.57455,46.6612],[2.60543,46.67121],[2.62864,46.65954],[2.62337,46.68964],[2.67511,46.70345],[2.7145,46.74449],[2.76632,46.72056],[2.79509,46.73434],[2.84677,46.72706],[2.84382,46.7389],[2.91327,46.79103],[3.01607,46.79996],[3.06676,46.74548],[3.13107,46.72629],[3.19545,46.68061],[3.27742,46.71662],[3.34344,46.68516],[3.36575,46.6896],[3.37855,46.71238],[3.42747,46.71216],[3.45272,46.68658],[3.44696,46.66077],[3.48183,46.65067],[3.5216,46.6858],[3.55354,46.68438],[3.54784,46.71877],[3.598,46.72398],[3.57569,46.74952],[3.59776,46.76203],[3.62942,46.74946],[3.63753,46.70838],[3.72399,46.62633],[3.71555,46.61569],[3.73238,46.60491],[3.74185,46.53951],[3.80513,46.51932],[3.83916,46.53129],[3.84035,46.51544],[3.86473,46.51102],[3.86491,46.48974],[3.95813,46.49059],[3.95208,46.48142],[4.00154,46.45862],[3.97995,46.39265],[3.98682,46.32768],[4.00178,46.32836],[3.94715,46.32154],[3.94279,46.29892],[3.89324,46.28036],[3.90785,46.24237],[3.89364,46.21691],[3.91837,46.20285],[3.96462,46.20179],[4.00267,46.17041],[4.10383,46.19844],[4.14539,46.17582],[4.18701,46.17457],[4.20373,46.19423],[4.25811,46.18365],[4.24866,46.16711],[4.28123,46.15594],[4.29529,46.17225],[4.36627,46.18585],[4.38938,46.21329],[4.38961,46.25729],[4.41039,46.2953],[4.48455,46.28753],[4.51272,46.26778],[4.56883,46.29385],[4.58348,46.27083],[4.60921,46.26629],[4.64484,46.30212],[4.68879,46.30134],[4.71039,46.27857],[4.68373,46.25343],[4.73448,46.23432],[4.72166,46.1904],[4.78021,46.17668]],[[4.89291,44.36482],[4.87264,44.35015],[4.89533,44.33806],[4.89156,44.31037],[4.97965,44.29748],[5.02598,44.36228],[5.06758,44.37443],[4.97308,44.43153],[4.91437,44.40194],[4.89291,44.36482]]]}},{"type":"Feature","properties":{"id":"93"},"geometry":{"type":"MultiPolygon","coordinates":[[[[6.94834,44.65482],[6.96837,44.6198],[6.93375,44.59686],[6.93351,44.57595],[6.85741,44.52259],[6.87591,44.48248],[6.93936,44.43385],[6.89287,44.42078],[6.88695,44.36526],[6.92257,44.35073],[6.97188,44.28362],[6.99429,44.2804],[7.00631,44.23823],[7.03606,44.22426],[7.08069,44.23047],[7.14105,44.201],[7.16274,44.20801],[7.2194,44.16847],[7.2409,44.17336],[7.26278,44.14803],[7.34467,44.14474],[7.36439,44.1175],[7.42475,44.11193],[7.50081,44.14225],[7.61835,44.14937],[7.63662,44.1771],[7.67278,44.17719],[7.67181,44.12194],[7.71508,44.08405],[7.71444,44.06122],[7.66762,44.03082],[7.65244,43.97371],[7.56917,43.94433],[7.56195,43.89974],[7.49788,43.87165],[7.5292,43.784],[7.49299,43.76919],[7.48809,43.75002],[7.45305,43.75841],[7.41096,43.7236],[7.34196,43.71337],[7.3333,43.67534],[7.31472,43.70653],[7.30754,43.68742],[7.23794,43.68599],[7.20646,43.64564],[7.16103,43.65521],[7.12647,43.60528],[7.13637,43.54458],[7.09374,43.57041],[7.03773,43.53471],[7.01276,43.55048],[6.95901,43.5398],[6.93783,43.50947],[6.95619,43.49696],[6.91843,43.44765],[6.89167,43.42845],[6.85772,43.4318],[6.85631,43.41152],[6.78898,43.40807],[6.75965,43.42387],[6.73981,43.41288],[6.70536,43.34396],[6.5847,43.27318],[6.66095,43.26577],[6.67858,43.27851],[6.69532,43.26684],[6.66358,43.23804],[6.67514,43.20439],[6.64402,43.17155],[6.60979,43.16637],[6.59721,43.18429],[6.55221,43.18734],[6.49171,43.1511],[6.402,43.14867],[6.36872,43.13697],[6.35907,43.08916],[6.27494,43.12074],[6.20103,43.11606],[6.15434,43.07621],[6.15204,43.03718],[6.16942,43.03497],[6.15048,43.02791],[6.09342,43.03352],[6.13161,43.04801],[6.11896,43.08055],[6.02154,43.07826],[6.00546,43.10396],[5.93392,43.10425],[5.92318,43.12325],[5.88123,43.10944],[5.90641,43.10193],[5.89477,43.08171],[5.9382,43.08456],[5.94704,43.06775],[5.88674,43.07697],[5.8396,43.048],[5.7957,43.06963],[5.81182,43.11062],[5.76734,43.11554],[5.77908,43.13478],[5.76628,43.13904],[5.69845,43.14375],[5.68124,43.1794],[5.63342,43.18841],[5.59875,43.16421],[5.5394,43.20878],[5.34182,43.21257],[5.37252,43.24508],[5.35326,43.27996],[5.36887,43.29308],[5.3142,43.36003],[5.21985,43.32812],[5.05391,43.32427],[5.02369,43.33905],[4.98866,43.39121],[5.00107,43.39822],[4.97382,43.40215],[4.97,43.42488],[4.93138,43.43316],[4.88841,43.41216],[4.90304,43.42799],[4.88396,43.41951],[4.85025,43.4508],[4.87731,43.41051],[4.83032,43.42774],[4.86147,43.40077],[4.84154,43.4036],[4.84465,43.39378],[4.87179,43.39036],[4.83447,43.37613],[4.87992,43.35899],[4.91225,43.37955],[4.85187,43.33235],[4.75368,43.35034],[4.66426,43.34682],[4.5628,43.37214],[4.56272,43.39225],[4.59296,43.40994],[4.55492,43.44622],[4.23559,43.46],[4.23968,43.49917],[4.32467,43.5282],[4.30811,43.54804],[4.31721,43.55348],[4.33058,43.5362],[4.40935,43.56113],[4.42554,43.58522],[4.45549,43.5859],[4.4753,43.6065],[4.42845,43.62772],[4.48724,43.69924],[4.53694,43.70751],[4.6251,43.68544],[4.61364,43.72982],[4.65124,43.78228],[4.64465,43.82555],[4.66311,43.84283],[4.64438,43.86193],[4.808,43.96003],[4.81247,43.98766],[4.84211,43.98647],[4.84334,44.00986],[4.82115,44.01647],[4.78844,44.06336],[4.76086,44.0863],[4.71995,44.08346],[4.70746,44.10367],[4.72207,44.18742],[4.70894,44.21191],[4.67267,44.21681],[4.67844,44.22943],[4.64918,44.26358],[4.65133,44.32258],[4.77967,44.31937],[4.80456,44.3039],[4.8141,44.23231],[4.82665,44.22833],[4.87523,44.26004],[4.92308,44.26113],[5.05214,44.30437],[5.10412,44.27991],[5.16643,44.31486],[5.14682,44.2718],[5.16038,44.26692],[5.15813,44.22884],[5.2339,44.21343],[5.2523,44.23121],[5.3033,44.20539],[5.36563,44.2097],[5.38666,44.18168],[5.38324,44.15528],[5.41677,44.15511],[5.46123,44.11814],[5.50482,44.11627],[5.57873,44.15208],[5.56437,44.1709],[5.58188,44.18874],[5.60933,44.19071],[5.63967,44.14949],[5.67794,44.14638],[5.68272,44.16322],[5.64722,44.17669],[5.67943,44.19178],[5.67299,44.24619],[5.68454,44.2632],[5.67561,44.27589],[5.64678,44.26709],[5.63972,44.29336],[5.60947,44.30635],[5.63082,44.33299],[5.4892,44.33998],[5.43023,44.37501],[5.44144,44.37776],[5.42789,44.42978],[5.47285,44.42039],[5.4983,44.43732],[5.46443,44.44789],[5.45841,44.49939],[5.61631,44.47271],[5.62979,44.50119],[5.66247,44.50138],[5.59725,44.54327],[5.64619,44.60938],[5.64172,44.65107],[5.72804,44.6392],[5.75035,44.65958],[5.78726,44.65308],[5.83044,44.69055],[5.80387,44.70585],[5.82746,44.75185],[5.94539,44.76192],[5.97937,44.78585],[5.94952,44.80453],[6.01326,44.83332],[6.0565,44.81581],[6.12699,44.86056],[6.24699,44.85173],[6.29501,44.8742],[6.34806,44.85166],[6.35897,44.93664],[6.329,44.94732],[6.31543,44.97904],[6.32341,44.99822],[6.25563,44.99586],[6.20245,45.02105],[6.21781,45.05995],[6.24012,45.06772],[6.22984,45.10121],[6.24564,45.11969],[6.34305,45.1152],[6.37126,45.09085],[6.36507,45.07129],[6.44769,45.05272],[6.47902,45.05566],[6.48746,45.09653],[6.51042,45.109],[6.53427,45.09904],[6.57221,45.1196],[6.6181,45.11981],[6.65876,45.07194],[6.67158,45.0229],[6.74739,45.00775],[6.74126,44.99397],[6.76525,44.96197],[6.7508,44.90943],[6.86324,44.85061],[6.91316,44.84499],[6.94237,44.8597],[7.01955,44.82483],[7.00594,44.78514],[7.03148,44.72821],[7.06602,44.71333],[7.0737,44.68025],[6.99036,44.69045],[6.94834,44.65482]],[[5.11807,43.51322],[5.10269,43.52604],[5.04874,43.52257],[5.01934,43.55538],[5.00086,43.4741],[5.04814,43.46671],[5.07039,43.40021],[5.13727,43.40019],[5.2286,43.46008],[5.20558,43.492],[5.14283,43.46089],[5.11807,43.51322]]],[[[7.06711,43.51365],[7.03158,43.52104],[7.04403,43.52412],[7.06711,43.51365]]],[[[7.04782,43.5045],[7.03709,43.50679],[7.05544,43.50782],[7.04782,43.5045]]],[[[5.3967,43.173],[5.37299,43.17738],[5.3897,43.17792],[5.3967,43.173]]],[[[5.38896,43.18537],[5.38094,43.18986],[5.39128,43.18615],[5.38896,43.18537]]],[[[5.61904,43.15731],[5.61533,43.15914],[5.61807,43.16211],[5.61904,43.15731]]],[[[5.30568,43.27676],[5.28799,43.26116],[5.30296,43.27885],[5.29294,43.27931],[5.32393,43.28619],[5.30568,43.27676]]],[[[5.33821,43.20794],[5.32944,43.2111],[5.33963,43.21178],[5.33821,43.20794]]],[[[5.36247,43.20002],[5.37005,43.19544],[5.36144,43.19687],[5.36247,43.20002]]],[[[5.32481,43.27891],[5.32437,43.28036],[5.32771,43.28046],[5.32481,43.27891]]],[[[5.33505,43.3373],[5.35769,43.29929],[5.3189,43.34707],[5.33505,43.3373]]],[[[4.87756,43.36494],[4.87494,43.36236],[4.87485,43.36624],[4.87756,43.36494]]],[[[6.39497,42.98688],[6.39391,42.98841],[6.39678,42.98912],[6.39497,42.98688]]],[[[6.4348,43.01554],[6.46799,43.04406],[6.51069,43.0479],[6.46479,43.01515],[6.4355,43.00533],[6.4348,43.01554]]],[[[6.14515,43.02003],[6.14479,43.0163],[6.14065,43.01801],[6.14515,43.02003]]],[[[5.74996,43.12661],[5.74802,43.12725],[5.75245,43.1273],[5.74996,43.12661]]],[[[6.3971,42.9928],[6.37702,43.0074],[6.40893,43.01917],[6.3971,42.9928]]],[[[6.36377,43.00396],[6.35996,43.01505],[6.3684,43.01807],[6.36377,43.00396]]],[[[5.76735,43.07892],[5.7657,43.0801],[5.76796,43.08191],[5.76959,43.08065],[5.76735,43.07892]]],[[[6.24407,43.02004],[6.24707,42.99746],[6.19993,42.98202],[6.16088,43.0011],[6.24407,43.02004]]],[[[5.78064,43.06977],[5.78372,43.08157],[5.79221,43.07745],[5.78064,43.06977]]],[[[5.91334,43.11608],[5.91393,43.11872],[5.92061,43.11945],[5.91334,43.11608]]],[[[5.79082,43.06871],[5.78718,43.07224],[5.79033,43.07258],[5.79082,43.06871]]],[[[4.89291,44.36482],[4.91852,44.40779],[4.96999,44.42967],[5.01215,44.41582],[5.01558,44.39304],[5.06585,44.38173],[5.02217,44.35845],[4.9762,44.29751],[4.89763,44.30564],[4.88575,44.34287],[4.86953,44.34508],[4.89291,44.36482]]]]}},{"type":"Feature","properties":{"id":"94"},"geometry":{"type":"MultiPolygon","coordinates":[[[[8.5864,41.87389],[8.59576,41.88124],[8.59289,41.8736],[8.5864,41.87389]]],[[[9.37422,41.5585],[9.37082,41.56044],[9.37264,41.56326],[9.37422,41.5585]]],[[[8.54194,42.3704],[8.54166,42.36619],[8.53769,42.36931],[8.54194,42.3704]]],[[[9.26095,41.3387],[9.2514,41.34019],[9.25688,41.34767],[9.26095,41.3387]]],[[[9.3591,41.54833],[9.36185,41.55372],[9.36471,41.55124],[9.3591,41.54833]]],[[[9.27103,41.36496],[9.25503,41.36829],[9.2683,41.37294],[9.27103,41.36496]]],[[[9.22633,41.37072],[9.22718,41.37319],[9.23027,41.37224],[9.22633,41.37072]]],[[[9.35516,41.53819],[9.35196,41.54033],[9.35497,41.54042],[9.35516,41.53819]]],[[[9.39202,41.66812],[9.39281,41.67246],[9.39651,41.66997],[9.39202,41.66812]]],[[[9.36261,41.63237],[9.36091,41.63323],[9.36316,41.63409],[9.36261,41.63237]]],[[[9.40227,41.8587],[9.40555,41.72171],[9.39573,41.69079],[9.3769,41.68284],[9.38134,41.65099],[9.3467,41.63435],[9.34447,41.61794],[9.30489,41.62585],[9.28094,41.59719],[9.29906,41.58565],[9.31767,41.60397],[9.36863,41.59739],[9.34513,41.56194],[9.27539,41.53167],[9.26821,41.50081],[9.28196,41.47694],[9.22395,41.44249],[9.21971,41.40522],[9.25815,41.4283],[9.26042,41.41715],[9.22072,41.3692],[9.20039,41.36484],[9.12739,41.39937],[9.09358,41.39386],[9.12032,41.43592],[9.07406,41.44221],[9.07398,41.4699],[9.04255,41.45772],[9.01819,41.47781],[8.92719,41.48982],[8.87412,41.52464],[8.84088,41.51969],[8.85255,41.54533],[8.78755,41.55985],[8.80262,41.57574],[8.77415,41.59226],[8.79509,41.62507],[8.8695,41.64609],[8.91688,41.68344],[8.90914,41.69126],[8.80913,41.71379],[8.78169,41.69982],[8.78147,41.73825],[8.71667,41.7225],[8.69813,41.7414],[8.66489,41.74169],[8.72883,41.7754],[8.70864,41.79661],[8.71775,41.80392],[8.76925,41.81014],[8.78144,41.82742],[8.75513,41.84186],[8.78823,41.85046],[8.77927,41.88361],[8.80142,41.89939],[8.77578,41.9267],[8.74511,41.93317],[8.72222,41.91111],[8.60823,41.89392],[8.6234,41.93484],[8.59208,41.9644],[8.6482,41.96841],[8.66746,41.98152],[8.66363,42.01414],[8.74534,42.04515],[8.7434,42.05723],[8.69025,42.11522],[8.65893,42.10129],[8.64701,42.12114],[8.58537,42.12925],[8.58975,42.14915],[8.56581,42.1481],[8.59124,42.16419],[8.56114,42.1716],[8.58219,42.17827],[8.57385,42.22797],[8.54254,42.23386],[8.6912,42.2705],[8.67437,42.29422],[8.60326,42.30855],[8.59782,42.31874],[8.62822,42.33201],[8.61311,42.3491],[8.55779,42.33224],[8.54729,42.37889],[8.57766,42.37395],[8.60791,42.38612],[8.6105,42.4159],[8.66019,42.42238],[8.6541,42.43825],[8.67724,42.47399],[8.65118,42.47357],[8.6655,42.51363],[8.71833,42.52457],[8.72216,42.55379],[8.70663,42.57041],[8.72527,42.58445],[8.72704,42.56161],[8.78889,42.55856],[8.81703,42.60474],[9.05641,42.65968],[9.05732,42.69109],[9.1274,42.73128],[9.21761,42.73344],[9.25779,42.7179],[9.28442,42.67634],[9.31418,42.689],[9.34512,42.73639],[9.34256,42.7948],[9.31086,42.83127],[9.33328,42.86008],[9.32099,42.89356],[9.35653,42.92343],[9.34332,42.99878],[9.41766,43.01076],[9.46112,42.97852],[9.49122,42.79649],[9.4657,42.75706],[9.44737,42.66778],[9.5273,42.56611],[9.54349,42.4293],[9.53224,42.37191],[9.55996,42.28231],[9.55022,42.10582],[9.41705,41.96123],[9.40227,41.8587]]],[[[9.40875,43.02232],[9.40392,43.02591],[9.4064,43.02766],[9.40875,43.02232]]],[[[9.34112,42.96307],[9.34015,42.96533],[9.34291,42.96376],[9.34112,42.96307]]]]}}]}