{"type":"FeatureCollection","features":[{"type":"Feature","properties":{"id":"01"},"geometry":{"type":"Polygon","coordinates":[[[-6.302372493,36.618502265],[-7.453592949,37.651590747],[-6.939136001,38.196907029],[-5.553591161,38.153688776],[-5.167577247,38.678653076],[-2.74085287,38.522052083],[-1.815211252,37.437540891],[-2.072194797,36.771768493],[-4.271156275,36.71230326],[-5.534754898,36.032936601],[-6.302372493,36.618502265]]]}},{"type":"Feature","properties":{"id":"02"},"geometry":{"type":"Polygon","coordinates":[[[-1.687520489,40.579393781],[-2.111770445,41.434185725],[-1.099725711,42.646279732],[0.5904701,42.698201461],[0.251750742,40.86133586],[-1.014696067,39.978317761],[-1.687520489,40.579393781]],[[-1.102619764,42.482264786],[-1.127375735,42.452575705],[-1.051728474,42.439886464],[-1.102619764,42.482264786]],[[-1.149851286,42.442161184],[-1.184071864,42.411639341],[-1.154430845,42.414966182],[-1.149851286,42.442161184]]]}},{"type":"Feature","properties":{"id":"03"},"geometry":{"type":"Polygon","coordinates":[[[-6.857267761,43.173245775],[-7.021635208,43.550232251],[-4.545106087,43.399845736],[-6.685137772,42.922653574],[-6.857267761,43.173245775]]]}},{"type":"Feature","properties":{"id":"04"},"geometry":{"type":"MultiPolygon","coordinates":[[[[1.409770529,38.890282328],[1.216184588,38.956370582],[1.58703538,39.096029987],[1.409770529,38.890282328]]],[[[1.388020604,38.641020049],[1.434086469,38.771549654],[1.549641727,38.683930411],[1.388020604,38.641020049]]],[[[2.597767418,39.54797688],[2.348124737,39.563540681],[3.001218805,39.923519268],[3.435790175,39.744265676],[3.166006409,39.325919649],[2.597767418,39.54797688]]],[[[2.946376726,39.125638769],[2.918099072,39.138535385],[2.976560518,39.158134337],[2.946376726,39.125638769]]],[[[4.156352095,39.855054593],[3.828197553,39.991610361],[4.170801804,40.0611363],[4.156352095,39.855054593]]]]}},{"type":"Feature","properties":{"id":"06"},"geometry":{"type":"MultiPolygon","coordinates":[[[[-4.158505746,42.866212562],[-4.85053047,43.125657676],[-3.205346046,43.373978128],[-4.158505746,42.866212562]],[[-4.179810517,42.823263558],[-4.161731691,42.813060892],[-4.161588903,42.820331367],[-4.179810517,42.823263558]],[[-4.089333322,42.809075447],[-4.112633546,42.822215188],[-4.101571902,42.79373494],[-4.089333322,42.809075447]]],[[[-3.277220175,43.263512187],[-3.249176449,43.259649859],[-3.294664928,43.204331462],[-3.277220175,43.263512187]]]]}},{"type":"Feature","properties":{"id":"07"},"geometry":{"type":"MultiPolygon","coordinates":[[[[-6.862328128,40.278075346],[-6.920205092,41.00151027],[-6.304150978,41.425569069],[-6.98385732,42.052905826],[-6.770670636,42.898623751],[-4.839870993,43.189798102],[-3.990663192,42.770984293],[-3.190123895,43.169860457],[-2.928312304,42.074650614],[-1.825991505,41.778639799],[-2.050862598,41.129472853],[-3.495552214,41.177735329],[-4.626245676,40.201529943],[-6.862328128,40.278075346]],[[-4.315750115,40.648199601],[-4.25405037,40.660315344],[-4.289966771,40.680562233],[-4.315750115,40.648199601]]],[[[-4.112633546,42.822215188],[-4.087883133,42.805677139],[-4.101571902,42.79373494],[-4.112633546,42.822215188]]],[[[-2.864238163,42.743907836],[-2.624665976,42.769889158],[-2.517612375,42.651646661],[-2.864238163,42.743907836]]]]}},{"type":"Feature","properties":{"id":"08"},"geometry":{"type":"Polygon","coordinates":[[[-4.495335708,38.44131923],[-4.936209684,38.681361953],[-4.695370652,39.376727222],[-5.304325905,40.107027691],[-3.137186273,40.062744867],[-3.405721729,41.235702004],[-1.757807406,41.04704889],[-0.929384803,38.787057147],[-2.373458293,38.022692351],[-2.574706531,38.472351984],[-4.495335708,38.44131923]]]}},{"type":"Feature","properties":{"id":"09"},"geometry":{"type":"MultiPolygon","coordinates":[[[[0.580178347,40.603645969],[0.200395375,41.102222624],[0.679279166,42.704496067],[3.165991273,42.369956013],[3.179234869,41.874733859],[0.580178347,40.603645969]]],[[[1.973205648,42.485245889],[2.012776641,42.44835672],[1.956559609,42.45793645],[1.973205648,42.485245889]]]]}},{"type":"Feature","properties":{"id":"10"},"geometry":{"type":"MultiPolygon","coordinates":[[[[-0.75230613,37.886431565],[-1.450033313,39.599472136],[0.166844579,40.728796881],[0.408467958,40.357554807],[-0.321525952,39.375248228],[0.133893448,38.834307117],[-0.75230613,37.886431565]]],[[[-1.243806261,39.996170807],[-1.456213071,40.130953751],[-1.071699674,40.051594447],[-1.243806261,39.996170807]]]]}},{"type":"Feature","properties":{"id":"11"},"geometry":{"type":"Polygon","coordinates":[[[-6.813143538,38.126205881],[-7.233207223,38.357747612],[-6.964206669,39.011323334],[-7.46048657,39.570743233],[-6.317502777,40.449890321],[-5.363537153,40.259042248],[-4.673742989,39.188050478],[-5.645958414,38.125171429],[-6.813143538,38.126205881]]]}},{"type":"Feature","properties":{"id":"12"},"geometry":{"type":"MultiPolygon","coordinates":[[[[-9.222542526,42.94264739],[-7.860678795,43.7646042],[-7.368421268,43.676504549],[-6.764759104,42.267913499],[-7.385485251,41.842731556],[-8.795309593,41.91353132],[-8.746479649,42.644058469],[-9.222542526,42.94264739]]],[[[-8.939269391,42.356010553],[-8.945124421,42.380181832],[-8.92423513,42.397362204],[-8.939269391,42.356010553]]],[[[-8.87144378,42.525366221],[-8.887504595,42.56367019],[-8.856025601,42.546799133],[-8.87144378,42.525366221]]]]}},{"type":"Feature","properties":{"id":"13"},"geometry":{"type":"MultiPolygon","coordinates":[[[[-4.567692063,40.218006764],[-3.689899933,41.084460748],[-3.08158747,40.203872583],[-3.759367595,39.919072659],[-4.567692063,40.218006764]],[[-3.374442445,40.626137242],[-3.363605957,40.63842108],[-3.380256641,40.632854203],[-3.374442445,40.626137242]]],[[[-4.316193914,40.666749129],[-4.256655748,40.663470513],[-4.322224299,40.651124282],[-4.316193914,40.666749129]]]]}},{"type":"Feature","properties":{"id":"14"},"geometry":{"type":"Polygon","coordinates":[[[-1.468546243,37.473327952],[-2.224423555,38.176649596],[-1.228821351,38.744633025],[-0.776605053,37.648467193],[-1.468546243,37.473327952]]]}},{"type":"Feature","properties":{"id":"15"},"geometry":{"type":"MultiPolygon","coordinates":[[[[-2.136754369,42.421190859],[-2.316187204,42.714080628],[-1.812849354,43.23911833],[-0.945538403,42.953639834],[-1.510245997,41.915182922],[-2.136754369,42.421190859]]],[[[-1.180471859,42.425603946],[-1.157016298,42.411756773],[-1.184668602,42.400851968],[-1.180471859,42.425603946]]],[[[-1.129390284,42.447403418],[-1.085197867,42.483567111],[-1.063889726,42.453286547],[-1.129390284,42.447403418]]]]}},{"type":"Feature","properties":{"id":"16"},"geometry":{"type":"Polygon","coordinates":[[[-2.901396187,42.682578477],[-3.047817122,43.359618385],[-1.839218901,43.381028291],[-2.459242491,42.633940981],[-2.901396187,42.682578477]],[[-2.603343948,42.770129683],[-2.752569819,42.792692034],[-2.517397391,42.646332391],[-2.603343948,42.770129683]],[[-3.30408577,43.254575705],[-3.270957741,43.202337155],[-3.264088934,43.267117681],[-3.30408577,43.254575705]]]}},{"type":"Feature","properties":{"id":"17"},"geometry":{"type":"Polygon","coordinates":[[[-2.893822697,42.017935948],[-2.991398689,42.642283056],[-1.827898308,42.24403765],[-2.893822697,42.017935948]],[[-2.994269964,42.603575847],[-2.986247596,42.60705126],[-2.994524578,42.615490639],[-2.994269964,42.603575847]],[[-2.942793895,42.597977224],[-2.922628722,42.600828963],[-2.929553517,42.610685937],[-2.942793895,42.597977224]]]}}]}