{"type":"FeatureCollection","features":[{"type":"Feature","properties":{"id":"01"},"geometry":{"type":"Polygon","coordinates":[[[7.136047709794425,45.27996084629203],[8.249555172420132,46.34476373113779],[8.696739486614666,46.10198105844201],[8.613253492798117,45.102564891912166],[9.202258870805995,44.68851546863625],[7.219666455989659,44.168352183922686],[6.661825121829444,45.053992144121544],[7.136047709794425,45.27996084629203]],[[8.047820645796834,45.10787387061995],[8.026656135611463,45.13299013106574],[7.980277387338743,45.123831302299415],[8.047820645796834,45.10787387061995]],[[8.816415720536943,45.02230505017948],[8.816376250325998,45.02228022972252],[8.814270060959597,45.01739443426879],[8.816415720536943,45.02230505017948]],[[8.704042688204058,45.01752653952132],[8.706385946690592,45.01356278494828],[8.705427668630506,45.02448328736226],[8.704042688204058,45.01752653952132]]]}},{"type":"Feature","properties":{"id":"02"},"geometry":{"type":"Polygon","coordinates":[[[7.734554907653768,45.92365152529369],[7.745457020039622,45.55781512266431],[6.831117619180505,45.70167707627734],[7.734554907653768,45.92365152529369]]]}},{"type":"Feature","properties":{"id":"03"},"geometry":{"type":"Polygon","coordinates":[[[8.579637905596584,45.75171976239956],[9.423797788237643,46.47648576392386],[10.058680104092964,46.224786525193316],[10.240328217912204,46.63507430852618],[10.706387991661572,45.36999883662699],[11.35841523437305,44.98355054235458],[9.62637511408571,45.133129397527696],[9.089235786443897,44.81727484453772],[8.538823462298422,45.23715943874875],[8.579637905596584,45.75171976239956]],[[8.697524573651359,45.8447403594196],[8.67613404686395,45.813841333513714],[8.716914388364648,45.83432691847576],[8.697524573651359,45.8447403594196]],[[9.289675115675749,44.70121854656973],[9.302148947930325,44.70316799751892],[9.29534259306565,44.70494899884646],[9.289675115675749,44.70121854656973]],[[9.29918515130284,44.69246175919433],[9.304607632958849,44.694263182046974],[9.304203022353088,44.69655519679038],[9.29918515130284,44.69246175919433]]]}},{"type":"Feature","properties":{"id":"04"},"geometry":{"type":"Polygon","coordinates":[[[12.013961736623731,46.55091278152477],[11.90518488366172,46.13943199661885],[10.53779763045899,45.785634420304866],[10.443946951918186,46.76078492852936],[12.101778221256044,47.078021033059045],[12.430423511324534,46.69441478681149],[12.013961736623731,46.55091278152477]]]}},{"type":"Feature","properties":{"id":"05"},"geometry":{"type":"Polygon","coordinates":[[[10.635380158277522,45.53543095946308],[12.527680609671421,46.67386918179056],[12.473945826102641,45.928830452315616],[12.952065058743779,45.82220612512867],[12.239564579818447,44.935070929752484],[11.490071682952541,44.93729662801045],[10.635380158277522,45.53543095946308]]]}},{"type":"Feature","properties":{"id":"06"},"geometry":{"type":"Polygon","coordinates":[[[13.516912365585613,46.38301200395136],[13.844858440617523,45.680559423635096],[12.463104732122906,45.93451994114442],[12.687525352058113,46.599862191612154],[13.516912365585613,46.38301200395136]]]}},{"type":"Feature","properties":{"id":"07"},"geometry":{"type":"Polygon","coordinates":[[[7.551656556658464,43.89429409064438],[8.954438351156362,44.67620820664016],[10.04738456586589,44.11512331922117],[8.829113022394615,44.41348687342711],[7.551656556658464,43.89429409064438]]]}},{"type":"Feature","properties":{"id":"08"},"geometry":{"type":"Polygon","coordinates":[[[9.332580793519329,44.735040353474616],[9.548661307253258,45.132651522605464],[12.28311768024679,44.9403072104186],[12.673024622224398,43.8237072071231],[9.50966925850193,44.42581706437915],[9.332580793519329,44.735040353474616]],[[12.176541373611943,43.81054074896846],[12.183273698347167,43.78251545838967],[12.238277864492726,43.7995477304911],[12.176541373611943,43.81054074896846]]]}},{"type":"Feature","properties":{"id":"09"},"geometry":{"type":"MultiPolygon","coordinates":[[[[9.897858876292736,44.163592584604025],[9.954059542287574,44.46845115371559],[11.610814219905023,44.15998187558588],[12.220784438819491,43.29832993991037],[11.182654166759178,42.36254865770976],[9.897858876292736,44.163592584604025]],[[10.480802711676489,44.189491290778776],[10.481860983293547,44.19027883677567],[10.480644495386,44.190168569598505],[10.480802711676489,44.189491290778776]]],[[[10.098412902783027,42.588899618583355],[10.046001471562073,42.58566409597274],[10.079146042970244,42.617589654136744],[10.098412902783027,42.588899618583355]]],[[[10.265372324754077,42.74474395466782],[10.103277609554512,42.78642847565035],[10.441316829457175,42.84936610608579],[10.265372324754077,42.74474395466782]]],[[[9.835477514326602,43.04911559444225],[9.810080833203834,43.00228579524573],[9.802881343399667,43.0502606755056],[9.835477514326602,43.04911559444225]]],[[[10.33000829464898,42.32219508375604],[10.297593170315823,42.315660443173506],[10.292574039286572,42.34403604924293],[10.33000829464898,42.32219508375604]]],[[[12.199347763225866,43.77037553497302],[12.172751539598059,43.795660372439926],[12.23726152697321,43.78700399891231],[12.199347763225866,43.77037553497302]]],[[[10.886609809534304,42.389656401375056],[10.931549126053278,42.333658779303505],[10.87434486755742,42.352257194553815],[10.886609809534304,42.389656401375056]]]]}},{"type":"Feature","properties":{"id":"10"},"geometry":{"type":"Polygon","coordinates":[[[13.15848717978767,42.6542537395794],[12.03082779448258,42.6434639135721],[12.09592272609592,43.49874160591838],[12.771011372309427,43.35773848440391],[13.15848717978767,42.6542537395794]]]}},{"type":"Feature","properties":{"id":"11"},"geometry":{"type":"Polygon","coordinates":[[[12.500817120669682,43.51962516614048],[12.380527233571895,43.81478408517996],[12.863262191093412,43.93709130250151],[13.892693856632812,42.937283185928585],[13.18772789025376,42.73354458989649],[12.500817120669682,43.51962516614048]],[[12.407804699873774,43.6021360545444],[12.431998123652072,43.59151449355611],[12.430628742886109,43.60640434439485],[12.407804699873774,43.6021360545444]]]}},{"type":"Feature","properties":{"id":"12"},"geometry":{"type":"MultiPolygon","coordinates":[[[[11.810906367940323,42.806918686032766],[12.45850308739587,42.40455931120384],[13.408283307006785,42.642863529562774],[13.037007376516508,42.11899763498423],[13.93382321776453,41.44269108284638],[12.616098497601175,41.45544106258338],[11.455017015573956,42.38813685389329],[11.810906367940323,42.806918686032766]],[[12.655725331969032,41.734022810152545],[12.660393785620922,41.73534881938955],[12.650712333491901,41.74486221120787],[12.655725331969032,41.734022810152545]],[[12.457703554967665,41.905948861793476],[12.450437994287569,41.90653064846859],[12.454366726528978,41.900273295513216],[12.457703554967665,41.905948861793476]]],[[[12.96739037483612,40.92128221486189],[12.993661296876661,40.93472362462094],[12.961275038437277,40.89398183288425],[12.96739037483612,40.92128221486189]]]]}},{"type":"Feature","properties":{"id":"13"},"geometry":{"type":"Polygon","coordinates":[[[13.94101515669948,41.68797275723309],[13.026621713019994,42.05002764624645],[13.730742487399741,42.85578700835413],[14.726951373667719,42.09655013057261],[13.94101515669948,41.68797275723309]]]}},{"type":"Feature","properties":{"id":"14"},"geometry":{"type":"Polygon","coordinates":[[[14.419325114394917,41.4351467645158],[13.979006311214183,41.662280095339966],[15.111018698891298,41.93228910597619],[14.967278531509354,41.46604245030128],[14.419325114394917,41.4351467645158]]]}},{"type":"Feature","properties":{"id":"15"},"geometry":{"type":"MultiPolygon","coordinates":[[[[14.125270002804656,41.50736966902667],[15.51368933110327,41.062780079296594],[15.65741482805938,40.047245298301576],[14.107691054054902,40.83158041999295],[13.762112597963098,41.222596729924085],[14.125270002804656,41.50736966902667]]],[[[14.23107110065004,40.541694927426235],[14.196802256032976,40.549430808993705],[14.266384049632293,40.55626906680419],[14.23107110065004,40.541694927426235]]],[[[13.95416374829771,40.7072816220236],[13.861575816171388,40.70329537323914],[13.868469103815125,40.75148015558786],[13.95416374829771,40.7072816220236]]],[[[14.017074240030341,40.76983777451865],[14.012826046156034,40.748597009816905],[13.990168071581374,40.743050755026765],[14.017074240030341,40.76983777451865]]]]}},{"type":"Feature","properties":{"id":"16"},"geometry":{"type":"Polygon","coordinates":[[[15.098313058156332,41.3905685446749],[15.323416594207691,41.91759044128195],[16.076407035144598,41.94050358685208],[15.996215537629645,41.437643053042294],[17.885952346457298,40.683454548326374],[18.401263070257258,39.94749647458532],[15.098313058156332,41.3905685446749]],[[16.633763564289712,40.7548843545275],[16.64585876691556,40.75254943012171],[16.642558789315835,40.75612514254785],[16.633763564289712,40.7548843545275]]]}},{"type":"Feature","properties":{"id":"17"},"geometry":{"type":"Polygon","coordinates":[[[15.465745629247515,40.63358674459454],[15.803558483595102,41.10267827700246],[16.70216645220504,40.724640249201656],[16.73811869782095,40.21525086034688],[16.085772802592267,39.89899346032451],[15.465745629247515,40.63358674459454]]]}},{"type":"Feature","properties":{"id":"18"},"geometry":{"type":"Polygon","coordinates":[[[15.973946986041323,39.46742341264105],[15.755915690898375,39.923556830088536],[16.41493749318646,40.12443189522468],[17.156519690981742,39.40127731798864],[17.096438206122166,38.897809640502636],[15.85277246978671,37.92214872719291],[16.22046363404292,38.90446941116046],[15.973946986041323,39.46742341264105]]]}},{"type":"Feature","properties":{"id":"19"},"geometry":{"type":"MultiPolygon","coordinates":[[[[12.907870888588864,38.02511341316298],[15.540318718934582,38.301250237974784],[15.136944854219083,36.67413003342975],[12.568099703164512,37.65993523808438],[12.907870888588864,38.02511341316298]]],[[[12.308425094827157,37.95235990488021],[12.366400699481986,37.9068223822697],[12.278073458493099,37.92638545546856],[12.308425094827157,37.95235990488021]]],[[[12.063892447961525,37.990046615287],[12.091826540622185,37.94762364761485],[12.027967137674093,37.99120676004011],[12.063892447961525,37.990046615287]]],[[[12.333515460236349,38.02065977518956],[12.352929980613618,37.99367085331008],[12.337015614476398,37.98556231018591],[12.333515460236349,38.02065977518956]]],[[[12.449981391716964,37.89620711199028],[12.45180865476776,37.85291335604602],[12.42898502131923,37.891182068289716],[12.449981391716964,37.89620711199028]]],[[[11.954545793010958,36.83941323686292],[12.05493022787519,36.78260324376732],[12.010436292816753,36.73443575002037],[11.954545793010958,36.83941323686292]]],[[[13.180283371569525,38.72059795197318],[13.200432302447519,38.71072775618132],[13.173543272307976,38.69190170879084],[13.180283371569525,38.72059795197318]]],[[[14.84674745350204,38.53793740958367],[14.809270832859326,38.55288734024842],[14.838492665648808,38.58116126132529],[14.84674745350204,38.53793740958367]]],[[[14.963728919324607,38.41211037478248],[14.992329089197925,38.366712052494364],[14.939328492594111,38.401984075803625],[14.963728919324607,38.41211037478248]]],[[[14.962466846470079,38.52123777691806],[14.956355804642413,38.43977978023319],[14.904618172357257,38.51107542513898],[14.962466846470079,38.52123777691806]]],[[[14.351793903717434,38.53063797970305],[14.339591358543755,38.53955914111164],[14.364279774718993,38.55305590604861],[14.351793903717434,38.53063797970305]]],[[[14.587088181331264,38.55863639133231],[14.542593624958904,38.570826314943275],[14.57394187841626,38.58179494699655],[14.587088181331264,38.55863639133231]]],[[[15.058524149025661,38.62504695164382],[15.068853013903876,38.647291600702374],[15.07739595514056,38.63566549176927],[15.058524149025661,38.62504695164382]]],[[[15.215086812903781,38.7714896163627],[15.187417530564632,38.790677966069815],[15.2432642799415,38.80294796741269],[15.215086812903781,38.7714896163627]]],[[[12.53139223604424,35.52913140056924],[12.627918945640308,35.52040588675922],[12.632692099268043,35.493971317274664],[12.53139223604424,35.52913140056924]]],[[[12.877266946555526,35.87482454918161],[12.881501572463385,35.85513142732686],[12.849198498496877,35.87096287239203],[12.877266946555526,35.87482454918161]]]]}},{"type":"Feature","properties":{"id":"20"},"geometry":{"type":"MultiPolygon","coordinates":[[[[8.367878425644696,40.49643399192616],[8.218263609634203,40.86849934510551],[9.607341922798796,41.018689000676424],[9.447621225339448,39.12670781158782],[8.366116847935608,39.026965471414464],[8.367878425644696,40.49643399192616]]],[[[9.410037448154593,41.186426942624834],[9.39676905834231,41.191110205784526],[9.41970524118235,41.207407489085845],[9.410037448154593,41.186426942624834]]],[[[9.471276884872344,41.24559451351695],[9.478828029497098,41.19952459544806],[9.433478823983974,41.18943191498441],[9.471276884872344,41.24559451351695]]],[[[9.343801033354191,41.25097408689659],[9.35247058894914,41.231778212951006],[9.338716451327304,41.23075207075653],[9.343801033354191,41.25097408689659]]],[[[9.431316707290122,41.25921208303289],[9.440005400813657,41.22317519935705],[9.377552125793295,41.2341330583003],[9.431316707290122,41.25921208303289]]],[[[9.730966709481754,40.87543195064968],[9.736782668124876,40.8597059189413],[9.713135077849584,40.86615133470796],[9.730966709481754,40.87543195064968]]],[[[9.734127341026774,40.92261608198801],[9.741631874375955,40.91108036350294],[9.673251505129521,40.8890130513634],[9.734127341026774,40.92261608198801]]],[[[8.325404666932593,41.105530319198174],[8.26361227235023,41.000293365951464],[8.220321370803479,41.04089832880332],[8.325404666932593,41.105530319198174]]],[[[8.308209596117637,39.18018476388413],[8.310181019225503,39.11317208889588],[8.219604980973271,39.14758013975599],[8.308209596117637,39.18018476388413]]]]}}]}