{"type":"FeatureCollection","features":[{"type":"Feature","properties":{"id":"ENG"},"geometry":{"type":"MultiPolygon","coordinates":[[[[-6.378,49.945],[-6.261,49.969],[-6.284,49.91],[-6.378,49.945]]],[[[-5.691,50.062],[-4.799,50.607],[-4.206,51.19],[-3.025,51.228],[-2.534,51.678],[-3.066,51.983],[-3.115,52.168],[-2.954,52.349],[-3.171,52.46],[-3.003,52.738],[-3.149,52.889],[-2.725,52.985],[-3.171,53.39],[-2.826,53.332],[-3.066,53.605],[-2.856,53.737],[-3.059,53.777],[-2.871,54.177],[-3.171,54.098],[-3.618,54.511],[-3.389,54.871],[-2.2,55.449],[-2.309,55.637],[-2.035,55.812],[-1.637,55.553],[-1.206,54.58],[-0.55,54.458],[-0.13,54.116],[-0.156,53.923],[0.073,53.658],[-0.629,53.708],[0.166,53.472],[0.335,53.104],[0.095,52.892],[1.175,52.947],[1.738,52.643],[1.554,52.086],[1.055,51.951],[1.246,51.85],[0.823,51.728],[0.928,51.63],[0.59,51.63],[0.86,51.607],[0.781,51.524],[-0.239,51.49],[1.385,51.304],[1.378,51.153],[0.928,50.92],[0.241,50.74],[-0.794,50.729],[-1.465,50.907],[-1.326,50.819],[-2.035,50.719],[-1.975,50.602],[-3.445,50.658],[-3.708,50.207],[-4.218,50.475],[-4.221,50.337],[-4.72,50.332],[-5.193,49.974],[-5.691,50.062]],[[-1.229,54.585],[-1.244,54.591],[-1.247,54.591],[-1.232,54.585],[-1.229,54.585]],[[-1.262,54.572],[-1.259,54.572],[-1.259,54.588],[-1.262,54.572]],[[-1.259,54.588],[-1.251,54.591],[-1.255,54.591],[-1.259,54.588]]],[[[-2.466,50.523],[-2.448,50.578],[-2.406,50.552],[-2.466,50.523]]],[[[-1.551,50.676],[-1.094,50.674],[-1.307,50.578],[-1.551,50.676]]]]}},{"type":"Feature","properties":{"id":"SCT"},"geometry":{"type":"MultiPolygon","coordinates":[[[[-0.797,60.81],[-0.94,60.675],[-0.869,60.842],[-0.797,60.81]]],[[[-0.914,60.643],[-0.782,60.604],[-0.88,60.564],[-0.914,60.643]]],[[[-0.944,60.355],[-1,60.325],[-1.022,60.355],[-0.944,60.355]]],[[[-1.004,60.58],[-1.067,60.487],[-1.202,60.606],[-1.015,60.728],[-1.004,60.58]]],[[[-0.989,60.135],[-1.03,60.116],[-1.041,60.164],[-0.989,60.135]]],[[[-1.345,60.498],[-1.06,60.36],[-1.285,59.891],[-1.379,60.209],[-1.675,60.233],[-1.375,60.302],[-1.581,60.492],[-1.416,60.612],[-1.345,60.498]]],[[[-1.604,59.52],[-1.652,59.509],[-1.641,59.557],[-1.604,59.52]]],[[[-1.686,60.344],[-1.716,60.304],[-1.757,60.341],[-1.686,60.344]]],[[[-4.431,57.495],[-3.351,57.723],[-1.825,57.585],[-2.523,56.583],[-3.276,56.35],[-2.894,56.451],[-2.699,56.22],[-3.4,56.022],[-3.801,56.106],[-2.159,55.918],[-2.035,55.812],[-2.309,55.637],[-2.2,55.449],[-3.171,54.967],[-3.996,54.773],[-4.829,54.853],[-4.885,54.681],[-5.163,54.901],[-4.641,55.462],[-4.889,55.876],[-4.356,55.873],[-4.851,56],[-4.75,56.205],[-5.061,55.791],[-5.32,56.03],[-5.541,55.396],[-5.755,55.341],[-5.609,56.287],[-5.361,56.61],[-5.916,56.586],[-6.07,56.737],[-5.826,56.838],[-5.718,57.132],[-5.969,57.066],[-6.723,57.453],[-6.325,57.667],[-6.018,57.331],[-5.504,57.368],[-5.845,57.479],[-5.71,57.572],[-5.785,57.824],[-5.268,57.919],[-5.406,58.065],[-5.016,58.59],[-3.07,58.619],[-3.126,58.372],[-3.94,57.977],[-4.049,57.85],[-3.899,57.813],[-4.431,57.495]]],[[[-2.035,60.143],[-2.061,60.106],[-2.11,60.132],[-2.035,60.143]]],[[[-2.388,59.35],[-2.459,59.353],[-2.403,59.387],[-2.388,59.35]]],[[[-2.41,59.326],[-2.421,59.265],[-2.466,59.292],[-2.41,59.326]]],[[[-2.553,59.3],[-2.493,59.271],[-2.59,59.218],[-2.553,59.3]]],[[[-2.541,59.091],[-2.601,59.072],[-2.65,59.173],[-2.541,59.091]]],[[[-2.643,59.069],[-2.688,59.067],[-2.665,59.12],[-2.643,59.069]]],[[[-2.639,59.231],[-2.699,59.181],[-2.703,59.218],[-2.639,59.231]]],[[[-2.759,59.149],[-2.789,59.234],[-2.718,59.231],[-2.759,59.149]]],[[[-2.924,59],[-2.804,58.998],[-2.95,58.746],[-2.939,58.876],[-3.355,58.979],[-3.351,59.096],[-2.924,59]]],[[[-2.804,59.069],[-2.83,59.019],[-2.935,59.035],[-2.804,59.069]]],[[[-2.815,59.242],[-2.871,59.236],[-2.849,59.284],[-2.815,59.242]]],[[[-2.86,59.35],[-2.916,59.348],[-2.89,59.39],[-2.86,59.35]]],[[[-2.898,59.17],[-2.916,59.114],[-2.954,59.159],[-2.898,59.17]]],[[[-2.901,59.3],[-2.984,59.26],[-3.036,59.318],[-2.901,59.3]]],[[[-2.95,59.12],[-3.111,59.154],[-2.965,59.178],[-2.95,59.12]]],[[[-3.171,58.857],[-3.081,58.825],[-3.374,58.863],[-3.171,58.857]]],[[[-4.885,55.804],[-4.881,55.762],[-4.941,55.765],[-4.885,55.804]]],[[[-4.93,55.751],[-4.934,55.69],[-4.983,55.709],[-4.93,55.751]]],[[[-5.091,55.462],[-5.313,55.473],[-5.388,55.637],[-5.264,55.717],[-5.091,55.462]]],[[[-5.485,56.517],[-5.511,56.477],[-5.59,56.493],[-5.485,56.517]]],[[[-5.8,56.512],[-5.68,56.467],[-5.766,56.337],[-6.393,56.289],[-6.168,56.337],[-6.318,56.536],[-6.104,56.647],[-5.8,56.512]]],[[[-5.703,56.099],[-6.093,55.823],[-6.029,55.68],[-6.284,55.584],[-6.43,55.701],[-6.449,55.844],[-5.703,56.099]]],[[[-5.718,55.685],[-5.744,55.629],[-5.77,55.68],[-5.718,55.685]]],[[[-6.108,56.925],[-6.123,56.867],[-6.216,56.888],[-6.108,56.925]]],[[[-6.13,59.12],[-6.138,59.075],[-6.194,59.085],[-6.13,59.12]]],[[[-6.186,56.043],[-6.276,56],[-6.153,56.13],[-6.186,56.043]]],[[[-6.16,58.213],[-6.254,58.179],[-6.201,58.248],[-6.16,58.213]]],[[[-6.28,58.288],[-6.464,57.959],[-7.124,57.75],[-6.876,57.911],[-7.139,58.017],[-7.094,58.176],[-6.246,58.505],[-6.28,58.288]]],[[[-6.276,56.954],[-6.434,57.008],[-6.344,57.055],[-6.276,56.954]]],[[[-6.374,56.34],[-6.408,56.303],[-6.445,56.334],[-6.374,56.34]]],[[[-6.569,56.586],[-6.659,56.591],[-6.528,56.676],[-6.569,56.586]]],[[[-6.651,56.954],[-6.704,56.947],[-6.663,56.992],[-6.651,56.954]]],[[[-6.666,56.554],[-6.734,56.581],[-6.681,56.602],[-6.666,56.554]]],[[[-6.726,56.533],[-6.79,56.533],[-6.753,56.568],[-6.726,56.533]]],[[[-6.809,56.541],[-6.929,56.446],[-6.996,56.504],[-6.809,56.541]]],[[[-6.978,57.903],[-7.015,57.874],[-7.057,57.903],[-6.978,57.903]]],[[[-7.072,57.67],[-7.267,57.397],[-7.229,57.106],[-7.342,57.103],[-7.492,57.577],[-7.072,57.67]]],[[[-7.195,57.781],[-7.218,57.75],[-7.282,57.773],[-7.195,57.781]]],[[[-7.409,56.978],[-7.559,56.931],[-7.424,57.047],[-7.409,56.978]]],[[[-7.473,56.886],[-7.522,56.87],[-7.548,56.896],[-7.473,56.886]]],[[[-7.608,56.801],[-7.657,56.788],[-7.668,56.83],[-7.608,56.801]]],[[[-8.564,57.837],[-8.56,57.787],[-8.62,57.813],[-8.564,57.837]]]]}},{"type":"Feature","properties":{"id":"WLS"},"geometry":{"type":"MultiPolygon","coordinates":[[[[-3.085,53.255],[-2.725,52.985],[-3.149,52.889],[-3.003,52.738],[-3.171,52.46],[-2.954,52.349],[-3.115,52.168],[-3.066,51.983],[-2.65,51.826],[-2.718,51.585],[-3.479,51.392],[-3.816,51.591],[-4.293,51.58],[-4.053,51.705],[-4.979,51.607],[-5.193,51.718],[-5.118,51.792],[-5.283,51.866],[-4.24,52.251],[-3.933,52.553],[-4.064,52.545],[-4.229,52.916],[-4.735,52.788],[-4.653,52.902],[-3.865,53.295],[-3.085,53.255]]],[[[-4.229,53.358],[-4.116,53.319],[-4.338,53.13],[-4.686,53.284],[-4.428,53.43],[-4.229,53.358]]]]}},{"type":"Feature","properties":{"id":"NIR"},"geometry":{"type":"MultiPolygon","coordinates":[[[[-5.976,55.057],[-5.703,54.8],[-5.868,54.689],[-5.549,54.654],[-5.44,54.477],[-5.504,54.344],[-5.673,54.575],[-5.553,54.341],[-6.048,54.034],[-6.595,54.045],[-7.019,54.416],[-7.27,54.151],[-7.555,54.135],[-8.148,54.455],[-6.948,55.182],[-6.119,55.213],[-5.976,55.057]]],[[[-6.156,55.309],[-6.194,55.243],[-6.198,55.314],[-6.156,55.309]]],[[[-6.224,55.29],[-6.273,55.28],[-6.265,55.33],[-6.224,55.29]]]]}}]}